{
"type": "FeatureCollection",
"name": "web_grid_data_64",
"crs": { "type": "name", "properties": { "name": "urn:ogc:def:crs:OGC:1.3:CRS84" } },
"features": [
{ "type": "Feature", "properties": { "index": 0, "lon": -131.18402489695137, "lat": 59.611055315170134, "classification": 126, "subregion_name": "Northern America", "umap_1d_x": 16.784231, "umap_2d_x": -40.799011, "umap_2d_y": -2.7987022, "umap_3d_x": -45.941341, "umap_3d_y": 4.6413116, "umap_3d_z": -26.571562, "tsne_1d_x": -49.619076, "tsne_2d_x": -26.663736, "tsne_2d_y": 13.954807, "tsne_3d_x": -16.747684, "tsne_3d_y": 38.547501, "tsne_3d_z": 29.680862, "grid_umap_1d_x": 17.0, "grid_umap_2d_x": 3.0, "grid_umap_2d_y": 4.0, "grid_umap_3d_x": 1.0, "grid_umap_3d_y": 2.0, "grid_umap_3d_z": 1.0, "grid_tsne_1d_x": 0.0, "grid_tsne_2d_x": 1.0, "grid_tsne_2d_y": 4.0, "grid_tsne_3d_x": 1.0, "grid_tsne_3d_y": 2.0, "grid_tsne_3d_z": 2.0, "tile_dir": "tiles/0000" }, "geometry": { "type": "Point", "coordinates": [ -131.184024896951371, 59.611055315170134 ] } },
{ "type": "Feature", "properties": { "index": 1, "lon": -62.623883749037333, "lat": 9.0173454830158875, "classification": 30, "subregion_name": "Latin America and the Caribbean", "umap_1d_x": 0.63910246, "umap_2d_x": 10.030628, "umap_2d_y": 43.123466, "umap_3d_x": 6.1113014, "umap_3d_y": 49.059601, "umap_3d_z": 24.983414, "tsne_1d_x": 17.551109, "tsne_2d_x": 19.866989, "tsne_2d_y": -37.949833, "tsne_3d_x": 36.957924, "tsne_3d_y": -40.670971, "tsne_3d_z": 20.553169, "grid_umap_1d_x": 1.0, "grid_umap_2d_x": 5.0, "grid_umap_2d_y": 6.0, "grid_umap_3d_x": 2.0, "grid_umap_3d_y": 3.0, "grid_umap_3d_z": 2.0, "grid_tsne_1d_x": 19.0, "grid_tsne_2d_x": 5.0, "grid_tsne_2d_y": 0.0, "grid_tsne_3d_x": 3.0, "grid_tsne_3d_y": 1.0, "grid_tsne_3d_z": 2.0, "tile_dir": "tiles/0001" }, "geometry": { "type": "Point", "coordinates": [ -62.623883749037333, 9.017345483015887 ] } },
{ "type": "Feature", "properties": { "index": 2, "lon": 11.678798453991277, "lat": -3.6112736378482571, "classification": 30, "subregion_name": "Sub-Saharan Africa", "umap_1d_x": -12.320284, "umap_2d_x": 48.158806, "umap_2d_y": -12.502239, "umap_3d_x": 36.104492, "umap_3d_y": -3.9007645, "umap_3d_z": 27.594849, "tsne_1d_x": 49.514023, "tsne_2d_x": 40.090767, "tsne_2d_y": -2.8410454, "tsne_3d_x": -2.7764244, "tsne_3d_y": -47.970524, "tsne_3d_z": -25.487997, "grid_umap_1d_x": 0.0, "grid_umap_2d_x": 7.0, "grid_umap_2d_y": 4.0, "grid_umap_3d_x": 3.0, "grid_umap_3d_y": 2.0, "grid_umap_3d_z": 3.0, "grid_tsne_1d_x": 49.0, "grid_tsne_2d_x": 7.0, "grid_tsne_2d_y": 2.0, "grid_tsne_3d_x": 2.0, "grid_tsne_3d_y": 0.0, "grid_tsne_3d_z": 0.0, "tile_dir": "tiles/0002" }, "geometry": { "type": "Point", "coordinates": [ 11.678798453991277, -3.611273637848257 ] } },
{ "type": "Feature", "properties": { "index": 3, "lon": 10.361996318211908, "lat": 45.732221473162198, "classification": 115, "subregion_name": "Southern Europe", "umap_1d_x": 13.234972, "umap_2d_x": -24.740774, "umap_2d_y": -2.0402527, "umap_3d_x": -35.001968, "umap_3d_y": -5.3823433, "umap_3d_z": -0.8898201, "tsne_1d_x": -24.178932, "tsne_2d_x": -10.349129, "tsne_2d_y": 7.7882767, "tsne_3d_x": -24.24486, "tsne_3d_y": 5.8832092, "tsne_3d_z": 0.029479980000004957, "grid_umap_1d_x": 14.0, "grid_umap_2d_x": 3.0, "grid_umap_2d_y": 3.0, "grid_umap_3d_x": 0.0, "grid_umap_3d_y": 1.0, "grid_umap_3d_z": 2.0, "grid_tsne_1d_x": 1.0, "grid_tsne_2d_x": 0.0, "grid_tsne_2d_y": 4.0, "grid_tsne_3d_x": 0.0, "grid_tsne_3d_y": 2.0, "grid_tsne_3d_z": 1.0, "tile_dir": "tiles/0003" }, "geometry": { "type": "Point", "coordinates": [ 10.361996318211908, 45.732221473162198 ] } },
{ "type": "Feature", "properties": { "index": 4, "lon": 32.748271054603435, "lat": 58.383271269244545, "classification": 126, "subregion_name": "Eastern Europe", "umap_1d_x": 21.671848, "umap_2d_x": -27.601662, "umap_2d_y": -13.733841, "umap_3d_x": -35.775017, "umap_3d_y": -11.860596, "umap_3d_z": -15.688488, "tsne_1d_x": -22.066343, "tsne_2d_x": -14.942474, "tsne_2d_y": 15.959877, "tsne_3d_x": -30.494827, "tsne_3d_y": 11.660652, "tsne_3d_z": 16.022049, "grid_umap_1d_x": 22.0, "grid_umap_2d_x": 1.0, "grid_umap_2d_y": 0.0, "grid_umap_3d_x": 0.0, "grid_umap_3d_y": 0.0, "grid_umap_3d_z": 1.0, "grid_tsne_1d_x": 2.0, "grid_tsne_2d_x": 1.0, "grid_tsne_2d_y": 6.0, "grid_tsne_3d_x": 0.0, "grid_tsne_3d_y": 2.0, "grid_tsne_3d_z": 2.0, "tile_dir": "tiles/0004" }, "geometry": { "type": "Point", "coordinates": [ 32.748271054603435, 58.383271269244545 ] } },
{ "type": "Feature", "properties": { "index": 5, "lon": -157.58390939711236, "lat": 65.17565160674306, "classification": 90, "subregion_name": "Unknown", "umap_1d_x": 17.806704, "umap_2d_x": -44.699066, "umap_2d_y": -16.810043, "umap_3d_x": -42.901676, "umap_3d_y": 2.6384888, "umap_3d_z": -44.694881, "tsne_1d_x": -58.265682, "tsne_2d_x": -31.941742, "tsne_2d_y": 32.653877, "tsne_3d_x": 2.9549484, "tsne_3d_y": 15.060303, "tsne_3d_z": 38.198868, "grid_umap_1d_x": 18.0, "grid_umap_2d_x": 3.0, "grid_umap_2d_y": 2.0, "grid_umap_3d_x": 1.0, "grid_umap_3d_y": 1.0, "grid_umap_3d_z": 0.0, "grid_tsne_1d_x": 3.0, "grid_tsne_2d_x": 3.0, "grid_tsne_2d_y": 5.0, "grid_tsne_3d_x": 2.0, "grid_tsne_3d_y": 2.0, "grid_tsne_3d_z": 3.0, "tile_dir": "tiles/0005" }, "geometry": { "type": "Point", "coordinates": [ -157.583909397112365, 65.17565160674306 ] } },
{ "type": "Feature", "properties": { "index": 6, "lon": 126.49524758116115, "lat": -7.7473533825519283, "classification": 112, "subregion_name": "Unknown", "umap_1d_x": -5.2334523, "umap_2d_x": 26.046822, "umap_2d_y": 36.362289, "umap_3d_x": 21.212669, "umap_3d_y": 38.681229, "umap_3d_z": 9.3242645, "tsne_1d_x": 33.585602, "tsne_2d_x": 29.140602, "tsne_2d_y": -28.562157, "tsne_3d_x": 28.291878, "tsne_3d_y": -35.536945, "tsne_3d_z": -8.337204, "grid_umap_1d_x": 2.0, "grid_umap_2d_x": 7.0, "grid_umap_2d_y": 7.0, "grid_umap_3d_x": 3.0, "grid_umap_3d_y": 3.0, "grid_umap_3d_z": 2.0, "grid_tsne_1d_x": 34.0, "grid_tsne_2d_x": 5.0, "grid_tsne_2d_y": 2.0, "grid_tsne_3d_x": 3.0, "grid_tsne_3d_y": 0.0, "grid_tsne_3d_z": 1.0, "tile_dir": "tiles/0006" }, "geometry": { "type": "Point", "coordinates": [ 126.495247581161152, -7.747353382551928 ] } },
{ "type": "Feature", "properties": { "index": 7, "lon": -60.559199396934574, "lat": -9.1621168160118955, "classification": 112, "subregion_name": "Latin America and the Caribbean", "umap_1d_x": -8.9365721, "umap_2d_x": 38.613609, "umap_2d_y": 26.443062, "umap_3d_x": 35.40274, "umap_3d_y": 39.283745, "umap_3d_z": -0.15858078, "tsne_1d_x": 44.053436, "tsne_2d_x": 46.917664, "tsne_2d_y": -22.627541, "tsne_3d_x": 24.748405, "tsne_3d_y": -46.284798, "tsne_3d_z": -32.683697, "grid_umap_1d_x": 3.0, "grid_umap_2d_x": 7.0, "grid_umap_2d_y": 5.0, "grid_umap_3d_x": 3.0, "grid_umap_3d_y": 2.0, "grid_umap_3d_z": 0.0, "grid_tsne_1d_x": 45.0, "grid_tsne_2d_x": 6.0, "grid_tsne_2d_y": 2.0, "grid_tsne_3d_x": 3.0, "grid_tsne_3d_y": 0.0, "grid_tsne_3d_z": 0.0, "tile_dir": "tiles/0007" }, "geometry": { "type": "Point", "coordinates": [ -60.559199396934574, -9.162116816011896 ] } },
{ "type": "Feature", "properties": { "index": 8, "lon": -110.79753785998055, "lat": 33.630555413786169, "classification": 20, "subregion_name": "Unknown", "umap_1d_x": 6.6804304, "umap_2d_x": -14.232742, "umap_2d_y": 6.2004929, "umap_3d_x": -21.73452, "umap_3d_y": 1.2427826, "umap_3d_z": 8.274662, "tsne_1d_x": -4.1228843, "tsne_2d_x": 3.7339973, "tsne_2d_y": 19.898422, "tsne_3d_x": -12.748016, "tsne_3d_y": -17.180771, "tsne_3d_z": 11.545078, "grid_umap_1d_x": 7.0, "grid_umap_2d_x": 1.0, "grid_umap_2d_y": 5.0, "grid_umap_3d_x": 0.0, "grid_umap_3d_y": 1.0, "grid_umap_3d_z": 3.0, "grid_tsne_1d_x": 4.0, "grid_tsne_2d_x": 4.0, "grid_tsne_2d_y": 7.0, "grid_tsne_3d_x": 0.0, "grid_tsne_3d_y": 0.0, "grid_tsne_3d_z": 2.0, "tile_dir": "tiles/0008" }, "geometry": { "type": "Point", "coordinates": [ -110.797537859980551, 33.630555413786169 ] } },
{ "type": "Feature", "properties": { "index": 9, "lon": -62.809316173250267, "lat": -7.7734235029434373, "classification": 112, "subregion_name": "Latin America and the Caribbean", "umap_1d_x": -8.4970951, "umap_2d_x": 36.712852, "umap_2d_y": 26.328148, "umap_3d_x": 34.597984, "umap_3d_y": 44.493401, "umap_3d_z": -2.3514252, "tsne_1d_x": 43.094471, "tsne_2d_x": 47.466316, "tsne_2d_y": -26.036634, "tsne_3d_x": 30.110657, "tsne_3d_y": -46.982319, "tsne_3d_z": -34.743721, "grid_umap_1d_x": 4.0, "grid_umap_2d_x": 6.0, "grid_umap_2d_y": 5.0, "grid_umap_3d_x": 3.0, "grid_umap_3d_y": 3.0, "grid_umap_3d_z": 0.0, "grid_tsne_1d_x": 44.0, "grid_tsne_2d_x": 7.0, "grid_tsne_2d_y": 1.0, "grid_tsne_3d_x": 3.0, "grid_tsne_3d_y": 1.0, "grid_tsne_3d_z": 1.0, "tile_dir": "tiles/0009" }, "geometry": { "type": "Point", "coordinates": [ -62.809316173250267, -7.773423502943437 ] } },
{ "type": "Feature", "properties": { "index": 10, "lon": 146.94513291445736, "lat": 61.529970596381403, "classification": 113, "subregion_name": "Eastern Europe", "umap_1d_x": 15.601893, "umap_2d_x": -40.534248, "umap_2d_y": 12.777412, "umap_3d_x": -47.168957, "umap_3d_y": 19.881874, "umap_3d_z": -13.755428, "tsne_1d_x": -42.999237, "tsne_2d_x": -42.873554, "tsne_2d_y": -2.2109566, "tsne_3d_x": 12.70327, "tsne_3d_y": 41.384277, "tsne_3d_z": 7.4300117, "grid_umap_1d_x": 16.0, "grid_umap_2d_x": 0.0, "grid_umap_2d_y": 7.0, "grid_umap_3d_x": 0.0, "grid_umap_3d_y": 3.0, "grid_umap_3d_z": 2.0, "grid_tsne_1d_x": 5.0, "grid_tsne_2d_x": 0.0, "grid_tsne_2d_y": 2.0, "grid_tsne_3d_x": 3.0, "grid_tsne_3d_y": 3.0, "grid_tsne_3d_z": 0.0, "tile_dir": "tiles/0010" }, "geometry": { "type": "Point", "coordinates": [ 146.945132914457361, 61.529970596381403 ] } },
{ "type": "Feature", "properties": { "index": 11, "lon": 0.95097479554655695, "lat": 34.24992652088514, "classification": 60, "subregion_name": "Northern Africa", "umap_1d_x": 5.6052785, "umap_2d_x": -9.5533752, "umap_2d_y": 5.9256439, "umap_3d_x": -17.999004, "umap_3d_y": 0.99185562, "umap_3d_z": 15.099884, "tsne_1d_x": -0.17826821, "tsne_2d_x": 10.541142, "tsne_2d_y": 8.6655502, "tsne_3d_x": -14.000412, "tsne_3d_y": -29.70507, "tsne_3d_z": 21.074417, "grid_umap_1d_x": 6.0, "grid_umap_2d_x": 2.0, "grid_umap_2d_y": 5.0, "grid_umap_3d_x": 1.0, "grid_umap_3d_y": 1.0, "grid_umap_3d_z": 3.0, "grid_tsne_1d_x": 6.0, "grid_tsne_2d_x": 7.0, "grid_tsne_2d_y": 6.0, "grid_tsne_3d_x": 1.0, "grid_tsne_3d_y": 0.0, "grid_tsne_3d_z": 3.0, "tile_dir": "tiles/0011" }, "geometry": { "type": "Point", "coordinates": [ 0.950974795546557, 34.24992652088514 ] } },
{ "type": "Feature", "properties": { "index": 12, "lon": 132.00268937221205, "lat": -14.470777994387468, "classification": 124, "subregion_name": "Unknown", "umap_1d_x": -18.346872, "umap_2d_x": 40.449249, "umap_2d_y": -32.292564, "umap_3d_x": 47.967949, "umap_3d_y": -27.206923, "umap_3d_z": 25.99559, "tsne_1d_x": 73.731018, "tsne_2d_x": 45.452385, "tsne_2d_y": 28.245979, "tsne_3d_x": -24.758839, "tsne_3d_y": -27.676538, "tsne_3d_z": -31.347864, "grid_umap_1d_x": 5.0, "grid_umap_2d_x": 5.0, "grid_umap_2d_y": 0.0, "grid_umap_3d_x": 3.0, "grid_umap_3d_y": 0.0, "grid_umap_3d_z": 2.0, "grid_tsne_1d_x": 63.0, "grid_tsne_2d_x": 7.0, "grid_tsne_2d_y": 5.0, "grid_tsne_3d_x": 0.0, "grid_tsne_3d_y": 1.0, "grid_tsne_3d_z": 0.0, "tile_dir": "tiles/0012" }, "geometry": { "type": "Point", "coordinates": [ 132.002689372212046, -14.470777994387468 ] } },
{ "type": "Feature", "properties": { "index": 13, "lon": -64.07543519235378, "lat": -29.89822853601709, "classification": 20, "subregion_name": "Latin America and the Caribbean", "umap_1d_x": -16.142159, "umap_2d_x": 37.806343, "umap_2d_y": -22.611418, "umap_3d_x": 46.584442, "umap_3d_y": -16.364399, "umap_3d_z": 13.835758, "tsne_1d_x": 64.845367, "tsne_2d_x": 32.506813, "tsne_2d_y": 29.146271, "tsne_3d_x": -14.186985, "tsne_3d_y": -17.198147, "tsne_3d_z": -34.836872, "grid_umap_1d_x": 8.0, "grid_umap_2d_x": 6.0, "grid_umap_2d_y": 1.0, "grid_umap_3d_x": 2.0, "grid_umap_3d_y": 1.0, "grid_umap_3d_z": 1.0, "grid_tsne_1d_x": 62.0, "grid_tsne_2d_x": 6.0, "grid_tsne_2d_y": 6.0, "grid_tsne_3d_x": 1.0, "grid_tsne_3d_y": 1.0, "grid_tsne_3d_z": 0.0, "tile_dir": "tiles/0013" }, "geometry": { "type": "Point", "coordinates": [ -64.07543519235378, -29.89822853601709 ] } },
{ "type": "Feature", "properties": { "index": 14, "lon": 122.96991375058582, "lat": -26.597251782422653, "classification": 20, "subregion_name": "Unknown", "umap_1d_x": -20.649744, "umap_2d_x": 41.690155, "umap_2d_y": -49.519207, "umap_3d_x": 49.549431, "umap_3d_y": -49.337238, "umap_3d_z": 23.66021, "tsne_1d_x": 80.985001, "tsne_2d_x": 43.617508, "tsne_2d_y": 41.451408, "tsne_3d_x": -47.503685, "tsne_3d_y": -14.503075, "tsne_3d_z": -23.088133, "grid_umap_1d_x": 9.0, "grid_umap_2d_x": 4.0, "grid_umap_2d_y": 1.0, "grid_umap_3d_x": 2.0, "grid_umap_3d_y": 0.0, "grid_umap_3d_z": 2.0, "grid_tsne_1d_x": 61.0, "grid_tsne_2d_x": 7.0, "grid_tsne_2d_y": 7.0, "grid_tsne_3d_x": 0.0, "grid_tsne_3d_y": 1.0, "grid_tsne_3d_z": 1.0, "tile_dir": "tiles/0014" }, "geometry": { "type": "Point", "coordinates": [ 122.969913750585818, -26.597251782422653 ] } },
{ "type": "Feature", "properties": { "index": 15, "lon": 97.920996945562763, "lat": 59.94224066763492, "classification": 111, "subregion_name": "Eastern Europe", "umap_1d_x": 14.303179, "umap_2d_x": -37.983921, "umap_2d_y": 11.536057, "umap_3d_x": -45.972298, "umap_3d_y": 14.099472, "umap_3d_z": -8.1910629, "tsne_1d_x": -42.193542, "tsne_2d_x": -39.76606, "tsne_2d_y": -3.5039444, "tsne_3d_x": 5.6392441, "tsne_3d_y": 36.017166, "tsne_3d_z": 3.9013367, "grid_umap_1d_x": 15.0, "grid_umap_2d_x": 3.0, "grid_umap_2d_y": 5.0, "grid_umap_3d_x": 0.0, "grid_umap_3d_y": 3.0, "grid_umap_3d_z": 3.0, "grid_tsne_1d_x": 7.0, "grid_tsne_2d_x": 1.0, "grid_tsne_2d_y": 2.0, "grid_tsne_3d_x": 2.0, "grid_tsne_3d_y": 3.0, "grid_tsne_3d_z": 0.0, "tile_dir": "tiles/0015" }, "geometry": { "type": "Point", "coordinates": [ 97.920996945562763, 59.94224066763492 ] } },
{ "type": "Feature", "properties": { "index": 16, "lon": -74.351473810246873, "lat": 9.0255167760401633, "classification": 30, "subregion_name": "Latin America and the Caribbean", "umap_1d_x": 0.6335783, "umap_2d_x": 10.169601, "umap_2d_y": 43.228287, "umap_3d_x": 6.1717033, "umap_3d_y": 48.559013, "umap_3d_z": 24.557327, "tsne_1d_x": 17.646626, "tsne_2d_x": 20.209251, "tsne_2d_y": -36.431702, "tsne_3d_x": 36.452126, "tsne_3d_y": -40.392982, "tsne_3d_z": 17.791115, "grid_umap_1d_x": 10.0, "grid_umap_2d_x": 5.0, "grid_umap_2d_y": 5.0, "grid_umap_3d_x": 2.0, "grid_umap_3d_y": 3.0, "grid_umap_3d_z": 1.0, "grid_tsne_1d_x": 18.0, "grid_tsne_2d_x": 5.0, "grid_tsne_2d_y": 1.0, "grid_tsne_3d_x": 3.0, "grid_tsne_3d_y": 0.0, "grid_tsne_3d_z": 2.0, "tile_dir": "tiles/0016" }, "geometry": { "type": "Point", "coordinates": [ -74.351473810246873, 9.025516776040163 ] } },
{ "type": "Feature", "properties": { "index": 17, "lon": -67.702080491546951, "lat": 55.185151366741493, "classification": 111, "subregion_name": "Northern America", "umap_1d_x": 17.140059, "umap_2d_x": -40.393124, "umap_2d_y": -12.283157, "umap_3d_x": -47.051521, "umap_3d_y": -2.5857735, "umap_3d_z": -36.288727, "tsne_1d_x": -54.655392, "tsne_2d_x": -29.677114, "tsne_2d_y": 19.317757, "tsne_3d_x": -11.916763, "tsne_3d_y": 25.978798, "tsne_3d_z": 28.399277, "grid_umap_1d_x": 19.0, "grid_umap_2d_x": 0.0, "grid_umap_2d_y": 1.0, "grid_umap_3d_x": 0.0, "grid_umap_3d_y": 1.0, "grid_umap_3d_z": 0.0, "grid_tsne_1d_x": 8.0, "grid_tsne_2d_x": 0.0, "grid_tsne_2d_y": 5.0, "grid_tsne_3d_x": 0.0, "grid_tsne_3d_y": 3.0, "grid_tsne_3d_z": 3.0, "tile_dir": "tiles/0017" }, "geometry": { "type": "Point", "coordinates": [ -67.702080491546951, 55.185151366741493 ] } },
{ "type": "Feature", "properties": { "index": 18, "lon": 129.8696844453861, "lat": 67.568666112546566, "classification": 126, "subregion_name": "Eastern Europe", "umap_1d_x": 19.314495, "umap_2d_x": -48.998184, "umap_2d_y": -5.208313, "umap_3d_x": -46.861744, "umap_3d_y": 18.750771, "umap_3d_z": -49.154568, "tsne_1d_x": -72.220917, "tsne_2d_x": -44.177773, "tsne_2d_y": 30.284843, "tsne_3d_x": 12.544674, "tsne_3d_y": 36.695671, "tsne_3d_z": 46.677116, "grid_umap_1d_x": 20.0, "grid_umap_2d_x": 0.0, "grid_umap_2d_y": 3.0, "grid_umap_3d_x": 2.0, "grid_umap_3d_y": 2.0, "grid_umap_3d_z": 0.0, "grid_tsne_1d_x": 9.0, "grid_tsne_2d_x": 3.0, "grid_tsne_2d_y": 4.0, "grid_tsne_3d_x": 3.0, "grid_tsne_3d_y": 3.0, "grid_tsne_3d_z": 3.0, "tile_dir": "tiles/0018" }, "geometry": { "type": "Point", "coordinates": [ 129.869684445386099, 67.568666112546566 ] } },
{ "type": "Feature", "properties": { "index": 19, "lon": 21.697529439419128, "lat": -19.900342479338065, "classification": 20, "subregion_name": "Sub-Saharan Africa", "umap_1d_x": -15.153301, "umap_2d_x": 45.407036, "umap_2d_y": -33.2878, "umap_3d_x": 40.717613, "umap_3d_y": -27.940657, "umap_3d_z": 29.13578, "tsne_1d_x": 72.079483, "tsne_2d_x": 39.586823, "tsne_2d_y": 30.071083, "tsne_3d_x": -28.402611, "tsne_3d_y": -28.009037, "tsne_3d_z": -15.723083, "grid_umap_1d_x": 11.0, "grid_umap_2d_x": 6.0, "grid_umap_2d_y": 0.0, "grid_umap_3d_x": 1.0, "grid_umap_3d_y": 0.0, "grid_umap_3d_z": 3.0, "grid_tsne_1d_x": 60.0, "grid_tsne_2d_x": 4.0, "grid_tsne_2d_y": 4.0, "grid_tsne_3d_x": 0.0, "grid_tsne_3d_y": 0.0, "grid_tsne_3d_z": 1.0, "tile_dir": "tiles/0019" }, "geometry": { "type": "Point", "coordinates": [ 21.697529439419128, -19.900342479338065 ] } },
{ "type": "Feature", "properties": { "index": 20, "lon": 11.866671031832539, "lat": 63.925305067871449, "classification": 126, "subregion_name": "Northern Europe", "umap_1d_x": 20.512077, "umap_2d_x": -32.747791, "umap_2d_y": -14.38736, "umap_3d_x": -40.100128, "umap_3d_y": -9.5014648, "umap_3d_z": -22.512569, "tsne_1d_x": -47.966679, "tsne_2d_x": -19.418699, "tsne_2d_y": 16.829491, "tsne_3d_x": -31.097103, "tsne_3d_y": 18.062714, "tsne_3d_z": 23.486824, "grid_umap_1d_x": 21.0, "grid_umap_2d_x": 3.0, "grid_umap_2d_y": 1.0, "grid_umap_3d_x": 0.0, "grid_umap_3d_y": 0.0, "grid_umap_3d_z": 0.0, "grid_tsne_1d_x": 10.0, "grid_tsne_2d_x": 0.0, "grid_tsne_2d_y": 6.0, "grid_tsne_3d_x": 0.0, "grid_tsne_3d_y": 2.0, "grid_tsne_3d_z": 3.0, "tile_dir": "tiles/0020" }, "geometry": { "type": "Point", "coordinates": [ 11.866671031832539, 63.925305067871449 ] } },
{ "type": "Feature", "properties": { "index": 21, "lon": -67.000067675694936, "lat": 56.520365894572905, "classification": 121, "subregion_name": "Northern America", "umap_1d_x": 17.031069, "umap_2d_x": -40.657894, "umap_2d_y": -10.165035, "umap_3d_x": -47.96669, "umap_3d_y": -1.7142105, "umap_3d_z": -34.377831, "tsne_1d_x": -53.288025, "tsne_2d_x": -30.902267, "tsne_2d_y": 18.242661, "tsne_3d_x": -6.9342155, "tsne_3d_y": 26.111237, "tsne_3d_z": 25.749802, "grid_umap_1d_x": 24.0, "grid_umap_2d_x": 1.0, "grid_umap_2d_y": 2.0, "grid_umap_3d_x": 1.0, "grid_umap_3d_y": 1.0, "grid_umap_3d_z": 1.0, "grid_tsne_1d_x": 11.0, "grid_tsne_2d_x": 2.0, "grid_tsne_2d_y": 4.0, "grid_tsne_3d_x": 1.0, "grid_tsne_3d_y": 3.0, "grid_tsne_3d_z": 3.0, "tile_dir": "tiles/0021" }, "geometry": { "type": "Point", "coordinates": [ -67.000067675694936, 56.520365894572905 ] } },
{ "type": "Feature", "properties": { "index": 22, "lon": 74.533283241064964, "lat": 34.569891084890315, "classification": 30, "subregion_name": "Southern Asia", "umap_1d_x": 7.5232177, "umap_2d_x": -25.657515, "umap_2d_y": 5.7595177, "umap_3d_x": -43.359894, "umap_3d_y": 20.595413, "umap_3d_z": -37.313244, "tsne_1d_x": -6.6883774, "tsne_2d_x": -0.3473053, "tsne_2d_y": 31.472496, "tsne_3d_x": 0.1976738, "tsne_3d_y": -7.3195419, "tsne_3d_z": 20.113548, "grid_umap_1d_x": 12.0, "grid_umap_2d_x": 2.0, "grid_umap_2d_y": 4.0, "grid_umap_3d_x": 1.0, "grid_umap_3d_y": 3.0, "grid_umap_3d_z": 0.0, "grid_tsne_1d_x": 12.0, "grid_tsne_2d_x": 3.0, "grid_tsne_2d_y": 7.0, "grid_tsne_3d_x": 1.0, "grid_tsne_3d_y": 1.0, "grid_tsne_3d_z": 3.0, "tile_dir": "tiles/0022" }, "geometry": { "type": "Point", "coordinates": [ 74.533283241064964, 34.569891084890315 ] } },
{ "type": "Feature", "properties": { "index": 23, "lon": 28.895015635309448, "lat": 61.012316303254366, "classification": 115, "subregion_name": "Unknown", "umap_1d_x": 21.023874, "umap_2d_x": -28.651209, "umap_2d_y": -8.0117264, "umap_3d_x": -40.614895, "umap_3d_y": -14.3675, "umap_3d_z": -4.6115875, "tsne_1d_x": -27.282272, "tsne_2d_x": -21.175585, "tsne_2d_y": -10.615482, "tsne_3d_x": -33.124321, "tsne_3d_y": 25.484123, "tsne_3d_z": 1.8697433, "grid_umap_1d_x": 23.0, "grid_umap_2d_x": 2.0, "grid_umap_2d_y": 2.0, "grid_umap_3d_x": 0.0, "grid_umap_3d_y": 0.0, "grid_umap_3d_z": 2.0, "grid_tsne_1d_x": 13.0, "grid_tsne_2d_x": 0.0, "grid_tsne_2d_y": 1.0, "grid_tsne_3d_x": 0.0, "grid_tsne_3d_y": 3.0, "grid_tsne_3d_z": 1.0, "tile_dir": "tiles/0023" }, "geometry": { "type": "Point", "coordinates": [ 28.895015635309448, 61.012316303254366 ] } },
{ "type": "Feature", "properties": { "index": 24, "lon": 29.97862421347395, "lat": -2.879264055562786, "classification": 40, "subregion_name": "Sub-Saharan Africa", "umap_1d_x": -13.202173, "umap_2d_x": 48.082634, "umap_2d_y": -20.665079, "umap_3d_x": 35.680542, "umap_3d_y": -13.122746, "umap_3d_z": 29.273758, "tsne_1d_x": 52.88044, "tsne_2d_x": 33.202911, "tsne_2d_y": 4.8042374, "tsne_3d_x": -6.8461037, "tsne_3d_y": -40.559425, "tsne_3d_z": -9.3125496, "grid_umap_1d_x": 13.0, "grid_umap_2d_x": 7.0, "grid_umap_2d_y": 2.0, "grid_umap_3d_x": 2.0, "grid_umap_3d_y": 1.0, "grid_umap_3d_z": 3.0, "grid_tsne_1d_x": 52.0, "grid_tsne_2d_x": 6.0, "grid_tsne_2d_y": 3.0, "grid_tsne_3d_x": 1.0, "grid_tsne_3d_y": 0.0, "grid_tsne_3d_z": 1.0, "tile_dir": "tiles/0024" }, "geometry": { "type": "Point", "coordinates": [ 29.97862421347395, -2.879264055562786 ] } },
{ "type": "Feature", "properties": { "index": 25, "lon": -66.403273350047002, "lat": -32.925403581324062, "classification": 20, "subregion_name": "Latin America and the Caribbean", "umap_1d_x": -16.337374, "umap_2d_x": 37.074051, "umap_2d_y": -23.680588, "umap_3d_x": 47.165894, "umap_3d_y": -17.64336, "umap_3d_z": 13.270306, "tsne_1d_x": 65.210365, "tsne_2d_x": 32.627228, "tsne_2d_y": 32.076469, "tsne_3d_x": -18.552124, "tsne_3d_y": -15.566586, "tsne_3d_z": -36.114204, "grid_umap_1d_x": 25.0, "grid_umap_2d_x": 7.0, "grid_umap_2d_y": 0.0, "grid_umap_3d_x": 3.0, "grid_umap_3d_y": 0.0, "grid_umap_3d_z": 1.0, "grid_tsne_1d_x": 59.0, "grid_tsne_2d_x": 6.0, "grid_tsne_2d_y": 7.0, "grid_tsne_3d_x": 1.0, "grid_tsne_3d_y": 2.0, "grid_tsne_3d_z": 1.0, "tile_dir": "tiles/0025" }, "geometry": { "type": "Point", "coordinates": [ -66.403273350047002, -32.925403581324062 ] } },
{ "type": "Feature", "properties": { "index": 26, "lon": 113.48061342503661, "lat": 56.866816714848781, "classification": 30, "subregion_name": "Eastern Europe", "umap_1d_x": 19.63723, "umap_2d_x": -47.221443, "umap_2d_y": -5.2132339, "umap_3d_x": -45.711617, "umap_3d_y": 18.393501, "umap_3d_z": -43.168678, "tsne_1d_x": -75.193306, "tsne_2d_x": -47.363735, "tsne_2d_y": 30.946358, "tsne_3d_x": 9.3946915, "tsne_3d_y": 43.653091, "tsne_3d_z": 49.66526, "grid_umap_1d_x": 26.0, "grid_umap_2d_x": 1.0, "grid_umap_2d_y": 3.0, "grid_umap_3d_x": 2.0, "grid_umap_3d_y": 2.0, "grid_umap_3d_z": 1.0, "grid_tsne_1d_x": 14.0, "grid_tsne_2d_x": 1.0, "grid_tsne_2d_y": 5.0, "grid_tsne_3d_x": 2.0, "grid_tsne_3d_y": 3.0, "grid_tsne_3d_z": 3.0, "tile_dir": "tiles/0026" }, "geometry": { "type": "Point", "coordinates": [ 113.480613425036609, 56.866816714848781 ] } },
{ "type": "Feature", "properties": { "index": 27, "lon": -50.626160214676418, "lat": -14.144160093187296, "classification": 112, "subregion_name": "Latin America and the Caribbean", "umap_1d_x": -13.598662, "umap_2d_x": 42.567215, "umap_2d_y": -11.648876, "umap_3d_x": 41.280754, "umap_3d_y": -3.4360542, "umap_3d_z": 22.006042, "tsne_1d_x": 55.836834, "tsne_2d_x": 43.386093, "tsne_2d_y": 5.9353218, "tsne_3d_x": 4.2233047, "tsne_3d_y": -31.791527, "tsne_3d_z": -29.612293, "grid_umap_1d_x": 27.0, "grid_umap_2d_x": 6.0, "grid_umap_2d_y": 4.0, "grid_umap_3d_x": 3.0, "grid_umap_3d_y": 2.0, "grid_umap_3d_z": 2.0, "grid_tsne_1d_x": 55.0, "grid_tsne_2d_x": 5.0, "grid_tsne_2d_y": 3.0, "grid_tsne_3d_x": 2.0, "grid_tsne_3d_y": 1.0, "grid_tsne_3d_z": 0.0, "tile_dir": "tiles/0027" }, "geometry": { "type": "Point", "coordinates": [ -50.626160214676418, -14.144160093187296 ] } },
{ "type": "Feature", "properties": { "index": 28, "lon": -54.464971912112802, "lat": -31.60014847463296, "classification": 40, "subregion_name": "Latin America and the Caribbean", "umap_1d_x": -17.123884, "umap_2d_x": 33.632088, "umap_2d_y": -17.146519, "umap_3d_x": 47.091064, "umap_3d_y": -13.716427, "umap_3d_z": 4.3846321, "tsne_1d_x": 66.51416, "tsne_2d_x": 27.147827, "tsne_2d_y": 31.311378, "tsne_3d_x": -12.385715, "tsne_3d_y": -13.028679, "tsne_3d_z": -47.077629, "grid_umap_1d_x": 28.0, "grid_umap_2d_x": 7.0, "grid_umap_2d_y": 1.0, "grid_umap_3d_x": 3.0, "grid_umap_3d_y": 1.0, "grid_umap_3d_z": 0.0, "grid_tsne_1d_x": 58.0, "grid_tsne_2d_x": 5.0, "grid_tsne_2d_y": 6.0, "grid_tsne_3d_x": 1.0, "grid_tsne_3d_y": 2.0, "grid_tsne_3d_z": 0.0, "tile_dir": "tiles/0028" }, "geometry": { "type": "Point", "coordinates": [ -54.464971912112802, -31.60014847463296 ] } },
{ "type": "Feature", "properties": { "index": 29, "lon": 92.528887071078429, "lat": 61.760505450806278, "classification": 116, "subregion_name": "Eastern Europe", "umap_1d_x": 15.779706, "umap_2d_x": -41.321411, "umap_2d_y": 7.9517288, "umap_3d_x": -48.613346, "umap_3d_y": 15.373756, "umap_3d_z": -17.370285, "tsne_1d_x": -45.484261, "tsne_2d_x": -38.887245, "tsne_2d_y": 2.0304375, "tsne_3d_x": -0.59870148, "tsne_3d_y": 40.408936, "tsne_3d_z": 11.885464, "grid_umap_1d_x": 29.0, "grid_umap_2d_x": 0.0, "grid_umap_2d_y": 5.0, "grid_umap_3d_x": 0.0, "grid_umap_3d_y": 2.0, "grid_umap_3d_z": 1.0, "grid_tsne_1d_x": 15.0, "grid_tsne_2d_x": 0.0, "grid_tsne_2d_y": 3.0, "grid_tsne_3d_x": 2.0, "grid_tsne_3d_y": 3.0, "grid_tsne_3d_z": 2.0, "tile_dir": "tiles/0029" }, "geometry": { "type": "Point", "coordinates": [ 92.528887071078429, 61.760505450806278 ] } },
{ "type": "Feature", "properties": { "index": 30, "lon": -74.144519703905345, "lat": 9.9418245314889617, "classification": 126, "subregion_name": "Latin America and the Caribbean", "umap_1d_x": 0.63089746, "umap_2d_x": 9.4908485, "umap_2d_y": 43.077972, "umap_3d_x": 5.6538887, "umap_3d_y": 47.938255, "umap_3d_z": 25.690834, "tsne_1d_x": 17.429529, "tsne_2d_x": 19.055473, "tsne_2d_y": -37.810265, "tsne_3d_x": 34.381447, "tsne_3d_y": -40.305195, "tsne_3d_z": 21.318916, "grid_umap_1d_x": 30.0, "grid_umap_2d_x": 5.0, "grid_umap_2d_y": 7.0, "grid_umap_3d_x": 2.0, "grid_umap_3d_y": 2.0, "grid_umap_3d_z": 2.0, "grid_tsne_1d_x": 20.0, "grid_tsne_2d_x": 4.0, "grid_tsne_2d_y": 2.0, "grid_tsne_3d_x": 3.0, "grid_tsne_3d_y": 0.0, "grid_tsne_3d_z": 3.0, "tile_dir": "tiles/0030" }, "geometry": { "type": "Point", "coordinates": [ -74.144519703905345, 9.941824531488962 ] } },
{ "type": "Feature", "properties": { "index": 31, "lon": -88.351277436391854, "lat": 34.342834650828962, "classification": 116, "subregion_name": "Unknown", "umap_1d_x": 10.077671, "umap_2d_x": -23.300339, "umap_2d_y": 12.734615, "umap_3d_x": -22.329247, "umap_3d_y": 5.1250877, "umap_3d_z": -23.143753, "tsne_1d_x": -12.645929, "tsne_2d_x": -4.2276154, "tsne_2d_y": -6.3323288, "tsne_3d_x": 5.8333626, "tsne_3d_y": -0.027755737, "tsne_3d_z": -8.9039726, "grid_umap_1d_x": 31.0, "grid_umap_2d_x": 1.0, "grid_umap_2d_y": 7.0, "grid_umap_3d_x": 0.0, "grid_umap_3d_y": 2.0, "grid_umap_3d_z": 0.0, "grid_tsne_1d_x": 16.0, "grid_tsne_2d_x": 1.0, "grid_tsne_2d_y": 0.0, "grid_tsne_3d_x": 3.0, "grid_tsne_3d_y": 2.0, "grid_tsne_3d_z": 0.0, "tile_dir": "tiles/0031" }, "geometry": { "type": "Point", "coordinates": [ -88.351277436391854, 34.342834650828962 ] } },
{ "type": "Feature", "properties": { "index": 32, "lon": 120.23026319128957, "lat": 56.624371026381013, "classification": 113, "subregion_name": "Eastern Europe", "umap_1d_x": 18.486866, "umap_2d_x": -45.614002, "umap_2d_y": 3.2910461, "umap_3d_x": -46.934803, "umap_3d_y": 20.63179, "umap_3d_z": -35.574577, "tsne_1d_x": -65.281624, "tsne_2d_x": -38.713722, "tsne_2d_y": 12.978523, "tsne_3d_x": 22.917, "tsne_3d_y": 33.485435, "tsne_3d_z": 22.429459, "grid_umap_1d_x": 32.0, "grid_umap_2d_x": 1.0, "grid_umap_2d_y": 4.0, "grid_umap_3d_x": 0.0, "grid_umap_3d_y": 3.0, "grid_umap_3d_z": 0.0, "grid_tsne_1d_x": 17.0, "grid_tsne_2d_x": 3.0, "grid_tsne_2d_y": 3.0, "grid_tsne_3d_x": 3.0, "grid_tsne_3d_y": 3.0, "grid_tsne_3d_z": 2.0, "tile_dir": "tiles/0032" }, "geometry": { "type": "Point", "coordinates": [ 120.230263191289566, 56.624371026381013 ] } },
{ "type": "Feature", "properties": { "index": 33, "lon": 19.60277646641984, "lat": 10.827131506678072, "classification": 30, "subregion_name": "Sub-Saharan Africa", "umap_1d_x": -2.2525721, "umap_2d_x": 9.8895798, "umap_2d_y": 26.175995, "umap_3d_x": 9.3867607, "umap_3d_y": 32.210693, "umap_3d_z": 33.28949, "tsne_1d_x": 22.03587, "tsne_2d_x": 15.109795, "tsne_2d_y": -15.416275, "tsne_3d_x": 13.976433, "tsne_3d_y": -44.780151, "tsne_3d_z": 18.036179, "grid_umap_1d_x": 33.0, "grid_umap_2d_x": 6.0, "grid_umap_2d_y": 7.0, "grid_umap_3d_x": 3.0, "grid_umap_3d_y": 3.0, "grid_umap_3d_z": 3.0, "grid_tsne_1d_x": 23.0, "grid_tsne_2d_x": 6.0, "grid_tsne_2d_y": 0.0, "grid_tsne_3d_x": 2.0, "grid_tsne_3d_y": 0.0, "grid_tsne_3d_z": 3.0, "tile_dir": "tiles/0033" }, "geometry": { "type": "Point", "coordinates": [ 19.60277646641984, 10.827131506678072 ] } },
{ "type": "Feature", "properties": { "index": 34, "lon": 37.897634021888052, "lat": 8.1828147036540173, "classification": 40, "subregion_name": "Sub-Saharan Africa", "umap_1d_x": -1.2111721, "umap_2d_x": 5.6172485, "umap_2d_y": 30.442078, "umap_3d_x": 5.1411324, "umap_3d_y": 30.312447, "umap_3d_z": 25.097229, "tsne_1d_x": 18.995258, "tsne_2d_x": 8.9067688, "tsne_2d_y": -18.802271, "tsne_3d_x": 7.1708908, "tsne_3d_y": -33.72361, "tsne_3d_z": 4.7179298, "grid_umap_1d_x": 34.0, "grid_umap_2d_x": 4.0, "grid_umap_2d_y": 7.0, "grid_umap_3d_x": 1.0, "grid_umap_3d_y": 3.0, "grid_umap_3d_z": 3.0, "grid_tsne_1d_x": 21.0, "grid_tsne_2d_x": 3.0, "grid_tsne_2d_y": 1.0, "grid_tsne_3d_x": 2.0, "grid_tsne_3d_y": 1.0, "grid_tsne_3d_z": 2.0, "tile_dir": "tiles/0034" }, "geometry": { "type": "Point", "coordinates": [ 37.897634021888052, 8.182814703654017 ] } },
{ "type": "Feature", "properties": { "index": 35, "lon": 33.323265853635434, "lat": -18.585226313617177, "classification": 126, "subregion_name": "Sub-Saharan Africa", "umap_1d_x": -14.728443, "umap_2d_x": 41.962059, "umap_2d_y": -19.747873, "umap_3d_x": 43.625214, "umap_3d_y": -10.705105, "umap_3d_z": 26.534225, "tsne_1d_x": 59.436401, "tsne_2d_x": 43.521103, "tsne_2d_y": 17.675308, "tsne_3d_x": -11.097763, "tsne_3d_y": -30.459099, "tsne_3d_z": -30.536913, "grid_umap_1d_x": 35.0, "grid_umap_2d_x": 5.0, "grid_umap_2d_y": 3.0, "grid_umap_3d_x": 3.0, "grid_umap_3d_y": 1.0, "grid_umap_3d_z": 2.0, "grid_tsne_1d_x": 57.0, "grid_tsne_2d_x": 7.0, "grid_tsne_2d_y": 4.0, "grid_tsne_3d_x": 1.0, "grid_tsne_3d_y": 0.0, "grid_tsne_3d_z": 0.0, "tile_dir": "tiles/0035" }, "geometry": { "type": "Point", "coordinates": [ 33.323265853635434, -18.585226313617177 ] } },
{ "type": "Feature", "properties": { "index": 36, "lon": 139.18317452505346, "lat": -25.499304965377554, "classification": 30, "subregion_name": "Unknown", "umap_1d_x": -19.878902, "umap_2d_x": 39.020638, "umap_2d_y": -47.16581, "umap_3d_x": 46.862564, "umap_3d_y": -43.637489, "umap_3d_z": 21.434929, "tsne_1d_x": 78.198448, "tsne_2d_x": 40.085396, "tsne_2d_y": 49.562164, "tsne_3d_x": -30.881538, "tsne_3d_y": -12.52758, "tsne_3d_z": -19.249531, "grid_umap_1d_x": 36.0, "grid_umap_2d_x": 4.0, "grid_umap_2d_y": 0.0, "grid_umap_3d_x": 2.0, "grid_umap_3d_y": 0.0, "grid_umap_3d_z": 1.0, "grid_tsne_1d_x": 56.0, "grid_tsne_2d_x": 5.0, "grid_tsne_2d_y": 7.0, "grid_tsne_3d_x": 0.0, "grid_tsne_3d_y": 2.0, "grid_tsne_3d_z": 0.0, "tile_dir": "tiles/0036" }, "geometry": { "type": "Point", "coordinates": [ 139.18317452505346, -25.499304965377554 ] } },
{ "type": "Feature", "properties": { "index": 37, "lon": 2.2177275359247521, "lat": 8.3794721982313547, "classification": 126, "subregion_name": "Sub-Saharan Africa", "umap_1d_x": -2.6214292, "umap_2d_x": 11.318718, "umap_2d_y": 24.535599, "umap_3d_x": 8.1315765, "umap_3d_y": 35.691284, "umap_3d_z": 38.551498, "tsne_1d_x": 23.367445, "tsne_2d_x": 18.690987, "tsne_2d_y": -12.889843, "tsne_3d_x": 13.892895, "tsne_3d_y": -40.174797, "tsne_3d_z": 26.020035, "grid_umap_1d_x": 37.0, "grid_umap_2d_x": 6.0, "grid_umap_2d_y": 6.0, "grid_umap_3d_x": 2.0, "grid_umap_3d_y": 2.0, "grid_umap_3d_z": 3.0, "grid_tsne_1d_x": 24.0, "grid_tsne_2d_x": 7.0, "grid_tsne_2d_y": 0.0, "grid_tsne_3d_x": 2.0, "grid_tsne_3d_y": 1.0, "grid_tsne_3d_z": 3.0, "tile_dir": "tiles/0037" }, "geometry": { "type": "Point", "coordinates": [ 2.217727535924752, 8.379472198231355 ] } },
{ "type": "Feature", "properties": { "index": 38, "lon": 41.247340970507253, "lat": 64.650472558032064, "classification": 111, "subregion_name": "Eastern Europe", "umap_1d_x": 14.837972, "umap_2d_x": -30.863857, "umap_2d_y": -5.2024078, "umap_3d_x": -44.247356, "umap_3d_y": -9.881176, "umap_3d_z": -3.2433853, "tsne_1d_x": -31.926067, "tsne_2d_x": -24.495703, "tsne_2d_y": -13.538742, "tsne_3d_x": -23.439968, "tsne_3d_y": 31.443474, "tsne_3d_z": 0.26698685000001, "grid_umap_1d_x": 38.0, "grid_umap_2d_x": 0.0, "grid_umap_2d_y": 2.0, "grid_umap_3d_x": 1.0, "grid_umap_3d_y": 1.0, "grid_umap_3d_z": 2.0, "grid_tsne_1d_x": 22.0, "grid_tsne_2d_x": 1.0, "grid_tsne_2d_y": 1.0, "grid_tsne_3d_x": 0.0, "grid_tsne_3d_y": 3.0, "grid_tsne_3d_z": 0.0, "tile_dir": "tiles/0038" }, "geometry": { "type": "Point", "coordinates": [ 41.247340970507253, 64.650472558032064 ] } },
{ "type": "Feature", "properties": { "index": 39, "lon": -120.81139835376254, "lat": 47.154806380086853, "classification": 126, "subregion_name": "Unknown", "umap_1d_x": 6.7273846, "umap_2d_x": -20.303476, "umap_2d_y": -2.3182373, "umap_3d_x": -29.633028, "umap_3d_y": -6.3273354, "umap_3d_z": 0.44709014999999397, "tsne_1d_x": -11.213278, "tsne_2d_x": -3.7645378, "tsne_2d_y": 11.907215, "tsne_3d_x": -23.331121, "tsne_3d_y": -2.9955025, "tsne_3d_z": 2.2322884, "grid_umap_1d_x": 39.0, "grid_umap_2d_x": 4.0, "grid_umap_2d_y": 3.0, "grid_umap_3d_x": 0.0, "grid_umap_3d_y": 0.0, "grid_umap_3d_z": 3.0, "grid_tsne_1d_x": 25.0, "grid_tsne_2d_x": 1.0, "grid_tsne_2d_y": 7.0, "grid_tsne_3d_x": 0.0, "grid_tsne_3d_y": 1.0, "grid_tsne_3d_z": 2.0, "tile_dir": "tiles/0039" }, "geometry": { "type": "Point", "coordinates": [ -120.811398353762542, 47.154806380086853 ] } },
{ "type": "Feature", "properties": { "index": 40, "lon": -78.65401779719916, "lat": 50.899046254510282, "classification": 126, "subregion_name": "Northern America", "umap_1d_x": 17.374952, "umap_2d_x": -41.064598, "umap_2d_y": -16.815002, "umap_3d_x": -45.627312, "umap_3d_y": -3.1751289, "umap_3d_z": -40.55669, "tsne_1d_x": -56.19051, "tsne_2d_x": -27.21945, "tsne_2d_y": 25.198524, "tsne_3d_x": -10.038414, "tsne_3d_y": 18.631454, "tsne_3d_z": 37.397285, "grid_umap_1d_x": 40.0, "grid_umap_2d_x": 0.0, "grid_umap_2d_y": 0.0, "grid_umap_3d_x": 2.0, "grid_umap_3d_y": 0.0, "grid_umap_3d_z": 0.0, "grid_tsne_1d_x": 26.0, "grid_tsne_2d_x": 0.0, "grid_tsne_2d_y": 7.0, "grid_tsne_3d_x": 1.0, "grid_tsne_3d_y": 2.0, "grid_tsne_3d_z": 3.0, "tile_dir": "tiles/0040" }, "geometry": { "type": "Point", "coordinates": [ -78.65401779719916, 50.899046254510282 ] } },
{ "type": "Feature", "properties": { "index": 41, "lon": 101.97585138962808, "lat": 23.730154626026973, "classification": 30, "subregion_name": "Unknown", "umap_1d_x": -0.91751838, "umap_2d_x": 2.3796692, "umap_2d_y": 34.486572, "umap_3d_x": 2.608387, "umap_3d_y": 33.891167, "umap_3d_z": 15.354385, "tsne_1d_x": 8.2793007, "tsne_2d_x": 6.8513756, "tsne_2d_y": -29.171549, "tsne_3d_x": 19.960114, "tsne_3d_y": -16.394806, "tsne_3d_z": 13.642662, "grid_umap_1d_x": 41.0, "grid_umap_2d_x": 3.0, "grid_umap_2d_y": 7.0, "grid_umap_3d_x": 1.0, "grid_umap_3d_y": 3.0, "grid_umap_3d_z": 2.0, "grid_tsne_1d_x": 27.0, "grid_tsne_2d_x": 3.0, "grid_tsne_2d_y": 0.0, "grid_tsne_3d_x": 3.0, "grid_tsne_3d_y": 1.0, "grid_tsne_3d_z": 3.0, "tile_dir": "tiles/0041" }, "geometry": { "type": "Point", "coordinates": [ 101.975851389628076, 23.730154626026973 ] } },
{ "type": "Feature", "properties": { "index": 42, "lon": 100.6205559935558, "lat": 59.961509456900927, "classification": 113, "subregion_name": "Eastern Europe", "umap_1d_x": 15.335196, "umap_2d_x": -39.314323, "umap_2d_y": 12.185947, "umap_3d_x": -46.599445, "umap_3d_y": 16.979485, "umap_3d_z": -12.294224, "tsne_1d_x": -42.716667, "tsne_2d_x": -39.561432, "tsne_2d_y": -1.2062416, "tsne_3d_x": 4.7003212, "tsne_3d_y": 36.257843, "tsne_3d_z": 8.1256638, "grid_umap_1d_x": 42.0, "grid_umap_2d_x": 1.0, "grid_umap_2d_y": 6.0, "grid_umap_3d_x": 1.0, "grid_umap_3d_y": 2.0, "grid_umap_3d_z": 2.0, "grid_tsne_1d_x": 28.0, "grid_tsne_2d_x": 2.0, "grid_tsne_2d_y": 3.0, "grid_tsne_3d_x": 2.0, "grid_tsne_3d_y": 3.0, "grid_tsne_3d_z": 1.0, "tile_dir": "tiles/0042" }, "geometry": { "type": "Point", "coordinates": [ 100.620555993555797, 59.961509456900927 ] } },
{ "type": "Feature", "properties": { "index": 43, "lon": -60.348698769397814, "lat": -19.183086291912417, "classification": 112, "subregion_name": "Latin America and the Caribbean", "umap_1d_x": -15.621945, "umap_2d_x": 39.045143, "umap_2d_y": -15.517971, "umap_3d_x": 44.654663, "umap_3d_y": -8.8993568, "umap_3d_z": 16.860588, "tsne_1d_x": 63.714157, "tsne_2d_x": 30.978676, "tsne_2d_y": 25.326553, "tsne_3d_x": -6.5742836, "tsne_3d_y": -22.779236, "tsne_3d_z": -36.479141, "grid_umap_1d_x": 43.0, "grid_umap_2d_x": 6.0, "grid_umap_2d_y": 3.0, "grid_umap_3d_x": 3.0, "grid_umap_3d_y": 2.0, "grid_umap_3d_z": 1.0, "grid_tsne_1d_x": 54.0, "grid_tsne_2d_x": 5.0, "grid_tsne_2d_y": 5.0, "grid_tsne_3d_x": 2.0, "grid_tsne_3d_y": 2.0, "grid_tsne_3d_z": 1.0, "tile_dir": "tiles/0043" }, "geometry": { "type": "Point", "coordinates": [ -60.348698769397814, -19.183086291912417 ] } },
{ "type": "Feature", "properties": { "index": 44, "lon": 16.646467834671057, "lat": 47.51253937097259, "classification": 40, "subregion_name": "Eastern Europe", "umap_1d_x": 23.288546, "umap_2d_x": -19.634476, "umap_2d_y": -13.820477, "umap_3d_x": -28.464415, "umap_3d_y": -13.26564, "umap_3d_z": -13.659363, "tsne_1d_x": -18.422943, "tsne_2d_x": -6.7983894, "tsne_2d_y": 25.058044, "tsne_3d_x": -36.57766, "tsne_3d_y": -3.1362381, "tsne_3d_z": 22.586472, "grid_umap_1d_x": 44.0, "grid_umap_2d_x": 2.0, "grid_umap_2d_y": 0.0, "grid_umap_3d_x": 1.0, "grid_umap_3d_y": 0.0, "grid_umap_3d_z": 0.0, "grid_tsne_1d_x": 29.0, "grid_tsne_2d_x": 3.0, "grid_tsne_2d_y": 6.0, "grid_tsne_3d_x": 0.0, "grid_tsne_3d_y": 1.0, "grid_tsne_3d_z": 3.0, "tile_dir": "tiles/0044" }, "geometry": { "type": "Point", "coordinates": [ 16.646467834671057, 47.51253937097259 ] } },
{ "type": "Feature", "properties": { "index": 45, "lon": 38.536363619346361, "lat": 58.058210833369557, "classification": 115, "subregion_name": "Eastern Europe", "umap_1d_x": 21.491213, "umap_2d_x": -27.352589, "umap_2d_y": -10.081284, "umap_3d_x": -37.690033, "umap_3d_y": -11.605076, "umap_3d_z": -9.2822647, "tsne_1d_x": -25.829657, "tsne_2d_x": -22.190704, "tsne_2d_y": -4.5101547, "tsne_3d_x": -29.382322, "tsne_3d_y": 17.133629, "tsne_3d_z": 7.7174797, "grid_umap_1d_x": 45.0, "grid_umap_2d_x": 1.0, "grid_umap_2d_y": 1.0, "grid_umap_3d_x": 1.0, "grid_umap_3d_y": 0.0, "grid_umap_3d_z": 2.0, "grid_tsne_1d_x": 30.0, "grid_tsne_2d_x": 2.0, "grid_tsne_2d_y": 2.0, "grid_tsne_3d_x": 0.0, "grid_tsne_3d_y": 3.0, "grid_tsne_3d_z": 2.0, "tile_dir": "tiles/0045" }, "geometry": { "type": "Point", "coordinates": [ 38.536363619346361, 58.058210833369557 ] } },
{ "type": "Feature", "properties": { "index": 46, "lon": 46.038307991115261, "lat": -24.429766223575811, "classification": 30, "subregion_name": "Sub-Saharan Africa", "umap_1d_x": -14.956573, "umap_2d_x": 43.421593, "umap_2d_y": -25.548492, "umap_3d_x": 42.329437, "umap_3d_y": -18.964478, "umap_3d_z": 27.471046, "tsne_1d_x": 60.866985, "tsne_2d_x": 40.909424, "tsne_2d_y": 23.7771, "tsne_3d_x": -21.404537, "tsne_3d_y": -31.376562, "tsne_3d_z": -25.368107, "grid_umap_1d_x": 46.0, "grid_umap_2d_x": 5.0, "grid_umap_2d_y": 2.0, "grid_umap_3d_x": 3.0, "grid_umap_3d_y": 0.0, "grid_umap_3d_z": 3.0, "grid_tsne_1d_x": 53.0, "grid_tsne_2d_x": 6.0, "grid_tsne_2d_y": 4.0, "grid_tsne_3d_x": 0.0, "grid_tsne_3d_y": 0.0, "grid_tsne_3d_z": 0.0, "tile_dir": "tiles/0046" }, "geometry": { "type": "Point", "coordinates": [ 46.038307991115261, -24.429766223575811 ] } },
{ "type": "Feature", "properties": { "index": 47, "lon": -99.280121736759639, "lat": 52.643788489981418, "classification": 111, "subregion_name": "Northern America", "umap_1d_x": 14.731166, "umap_2d_x": -36.794174, "umap_2d_y": -2.2462387, "umap_3d_x": -47.153938, "umap_3d_y": -1.1866951, "umap_3d_z": -15.270447, "tsne_1d_x": -34.558453, "tsne_2d_x": -27.093939, "tsne_2d_y": -20.23271, "tsne_3d_x": -9.1570358, "tsne_3d_y": 22.891151, "tsne_3d_z": 9.3945808, "grid_umap_1d_x": 47.0, "grid_umap_2d_x": 4.0, "grid_umap_2d_y": 4.0, "grid_umap_3d_x": 0.0, "grid_umap_3d_y": 1.0, "grid_umap_3d_z": 1.0, "grid_tsne_1d_x": 31.0, "grid_tsne_2d_x": 2.0, "grid_tsne_2d_y": 1.0, "grid_tsne_3d_x": 1.0, "grid_tsne_3d_y": 3.0, "grid_tsne_3d_z": 2.0, "tile_dir": "tiles/0047" }, "geometry": { "type": "Point", "coordinates": [ -99.280121736759639, 52.643788489981418 ] } },
{ "type": "Feature", "properties": { "index": 48, "lon": -2.5536137322072818, "lat": 47.689727488310467, "classification": 40, "subregion_name": "Unknown", "umap_1d_x": 23.171967, "umap_2d_x": -20.752922, "umap_2d_y": -15.828152, "umap_3d_x": -28.371092, "umap_3d_y": -13.496098, "umap_3d_z": -10.353497, "tsne_1d_x": -18.354437, "tsne_2d_x": -7.1589165, "tsne_2d_y": 20.969101, "tsne_3d_x": -41.202965, "tsne_3d_y": -2.0328712, "tsne_3d_z": 18.974892, "grid_umap_1d_x": 48.0, "grid_umap_2d_x": 3.0, "grid_umap_2d_y": 0.0, "grid_umap_3d_x": 1.0, "grid_umap_3d_y": 0.0, "grid_umap_3d_z": 1.0, "grid_tsne_1d_x": 32.0, "grid_tsne_2d_x": 2.0, "grid_tsne_2d_y": 7.0, "grid_tsne_3d_x": 1.0, "grid_tsne_3d_y": 1.0, "grid_tsne_3d_z": 2.0, "tile_dir": "tiles/0048" }, "geometry": { "type": "Point", "coordinates": [ -2.553613732207282, 47.689727488310467 ] } },
{ "type": "Feature", "properties": { "index": 49, "lon": -114.56766738688782, "lat": 54.851127958280557, "classification": 111, "subregion_name": "Northern America", "umap_1d_x": 14.114901, "umap_2d_x": -34.38633, "umap_2d_y": 3.6436844, "umap_3d_x": -45.049263, "umap_3d_y": 2.683918, "umap_3d_z": -5.4355927, "tsne_1d_x": -35.888054, "tsne_2d_x": -29.830778, "tsne_2d_y": -18.742245, "tsne_3d_x": -4.5355949, "tsne_3d_y": 22.44696, "tsne_3d_z": 0.865345, "grid_umap_1d_x": 49.0, "grid_umap_2d_x": 0.0, "grid_umap_2d_y": 4.0, "grid_umap_3d_x": 0.0, "grid_umap_3d_y": 2.0, "grid_umap_3d_z": 2.0, "grid_tsne_1d_x": 33.0, "grid_tsne_2d_x": 0.0, "grid_tsne_2d_y": 0.0, "grid_tsne_3d_x": 1.0, "grid_tsne_3d_y": 3.0, "grid_tsne_3d_z": 1.0, "tile_dir": "tiles/0049" }, "geometry": { "type": "Point", "coordinates": [ -114.56766738688782, 54.851127958280557 ] } },
{ "type": "Feature", "properties": { "index": 50, "lon": 121.46020070272681, "lat": 37.027512243319123, "classification": 40, "subregion_name": "Unknown", "umap_1d_x": 8.6619444, "umap_2d_x": -14.374466, "umap_2d_y": 31.638718, "umap_3d_x": -13.842712, "umap_3d_y": 25.067696, "umap_3d_z": -6.8708382, "tsne_1d_x": -9.1059856, "tsne_2d_x": -7.0824547, "tsne_2d_y": -24.679926, "tsne_3d_x": 37.455597, "tsne_3d_y": 4.7680244, "tsne_3d_z": 11.470245, "grid_umap_1d_x": 50.0, "grid_umap_2d_x": 2.0, "grid_umap_2d_y": 7.0, "grid_umap_3d_x": 1.0, "grid_umap_3d_y": 3.0, "grid_umap_3d_z": 1.0, "grid_tsne_1d_x": 35.0, "grid_tsne_2d_x": 3.0, "grid_tsne_2d_y": 2.0, "grid_tsne_3d_x": 3.0, "grid_tsne_3d_y": 2.0, "grid_tsne_3d_z": 2.0, "tile_dir": "tiles/0050" }, "geometry": { "type": "Point", "coordinates": [ 121.460200702726809, 37.027512243319123 ] } },
{ "type": "Feature", "properties": { "index": 51, "lon": 30.818253803894208, "lat": 63.775449055942602, "classification": 111, "subregion_name": "Eastern Europe", "umap_1d_x": 17.957838, "umap_2d_x": -45.029392, "umap_2d_y": -17.90107, "umap_3d_x": -41.667557, "umap_3d_y": 3.6871185, "umap_3d_z": -43.909973, "tsne_1d_x": -58.854641, "tsne_2d_x": -33.106461, "tsne_2d_y": 36.831696, "tsne_3d_x": 6.1886292, "tsne_3d_y": 13.397564, "tsne_3d_z": 44.694611, "grid_umap_1d_x": 51.0, "grid_umap_2d_x": 2.0, "grid_umap_2d_y": 1.0, "grid_umap_3d_x": 2.0, "grid_umap_3d_y": 1.0, "grid_umap_3d_z": 0.0, "grid_tsne_1d_x": 36.0, "grid_tsne_2d_x": 2.0, "grid_tsne_2d_y": 6.0, "grid_tsne_3d_x": 3.0, "grid_tsne_3d_y": 2.0, "grid_tsne_3d_z": 3.0, "tile_dir": "tiles/0051" }, "geometry": { "type": "Point", "coordinates": [ 30.818253803894208, 63.775449055942602 ] } },
{ "type": "Feature", "properties": { "index": 52, "lon": -54.670559079773156, "lat": 0.86517015697788902, "classification": 112, "subregion_name": "Latin America and the Caribbean", "umap_1d_x": -7.9122205, "umap_2d_x": 36.13575, "umap_2d_y": 33.687691, "umap_3d_x": 32.055435, "umap_3d_y": 49.260277, "umap_3d_z": 3.5647469, "tsne_1d_x": 41.003582, "tsne_2d_x": 47.612091, "tsne_2d_y": -34.111202, "tsne_3d_x": 35.343155, "tsne_3d_y": -38.424671, "tsne_3d_z": -37.297585, "grid_umap_1d_x": 52.0, "grid_umap_2d_x": 7.0, "grid_umap_2d_y": 6.0, "grid_umap_3d_x": 3.0, "grid_umap_3d_y": 3.0, "grid_umap_3d_z": 1.0, "grid_tsne_1d_x": 42.0, "grid_tsne_2d_x": 6.0, "grid_tsne_2d_y": 1.0, "grid_tsne_3d_x": 3.0, "grid_tsne_3d_y": 1.0, "grid_tsne_3d_z": 0.0, "tile_dir": "tiles/0052" }, "geometry": { "type": "Point", "coordinates": [ -54.670559079773156, 0.865170156977889 ] } },
{ "type": "Feature", "properties": { "index": 53, "lon": -51.451191477708704, "lat": -28.660335907290911, "classification": 112, "subregion_name": "Latin America and the Caribbean", "umap_1d_x": -15.935365, "umap_2d_x": 37.579964, "umap_2d_y": -19.407404, "umap_3d_x": 42.685226, "umap_3d_y": -11.977341, "umap_3d_z": 12.7523, "tsne_1d_x": 63.096722, "tsne_2d_x": 28.53363, "tsne_2d_y": 20.49942, "tsne_3d_x": 2.0745583, "tsne_3d_y": -14.250584, "tsne_3d_z": -35.842445, "grid_umap_1d_x": 53.0, "grid_umap_2d_x": 6.0, "grid_umap_2d_y": 2.0, "grid_umap_3d_x": 3.0, "grid_umap_3d_y": 1.0, "grid_umap_3d_z": 1.0, "grid_tsne_1d_x": 51.0, "grid_tsne_2d_x": 5.0, "grid_tsne_2d_y": 4.0, "grid_tsne_3d_x": 2.0, "grid_tsne_3d_y": 2.0, "grid_tsne_3d_z": 0.0, "tile_dir": "tiles/0053" }, "geometry": { "type": "Point", "coordinates": [ -51.451191477708704, -28.660335907290911 ] } },
{ "type": "Feature", "properties": { "index": 54, "lon": -67.954413123873806, "lat": 63.388848486405564, "classification": 100, "subregion_name": "Unknown", "umap_1d_x": 19.210043, "umap_2d_x": -48.848572, "umap_2d_y": -5.5364189, "umap_3d_x": -46.843071, "umap_3d_y": 17.367218, "umap_3d_z": -48.001469, "tsne_1d_x": -73.612572, "tsne_2d_x": -44.701199, "tsne_2d_y": 32.611633, "tsne_3d_x": 10.626434, "tsne_3d_y": 50.0, "tsne_3d_z": 44.003212, "grid_umap_1d_x": 54.0, "grid_umap_2d_x": 2.0, "grid_umap_2d_y": 3.0, "grid_umap_3d_x": 1.0, "grid_umap_3d_y": 2.0, "grid_umap_3d_z": 0.0, "grid_tsne_1d_x": 37.0, "grid_tsne_2d_x": 2.0, "grid_tsne_2d_y": 5.0, "grid_tsne_3d_x": 2.0, "grid_tsne_3d_y": 2.0, "grid_tsne_3d_z": 2.0, "tile_dir": "tiles/0054" }, "geometry": { "type": "Point", "coordinates": [ -67.954413123873806, 63.388848486405564 ] } },
{ "type": "Feature", "properties": { "index": 55, "lon": 23.216687363256767, "lat": -13.169608974028385, "classification": 114, "subregion_name": "Sub-Saharan Africa", "umap_1d_x": -13.269246, "umap_2d_x": 47.377998, "umap_2d_y": -18.430244, "umap_3d_x": 36.847321, "umap_3d_y": -11.437889, "umap_3d_z": 27.549187, "tsne_1d_x": 52.599815, "tsne_2d_x": 37.468811, "tsne_2d_y": 6.4841194, "tsne_3d_x": -4.8457642, "tsne_3d_y": -36.809372, "tsne_3d_z": -18.936651, "grid_umap_1d_x": 55.0, "grid_umap_2d_x": 7.0, "grid_umap_2d_y": 3.0, "grid_umap_3d_x": 2.0, "grid_umap_3d_y": 1.0, "grid_umap_3d_z": 2.0, "grid_tsne_1d_x": 50.0, "grid_tsne_2d_x": 4.0, "grid_tsne_2d_y": 3.0, "grid_tsne_3d_x": 2.0, "grid_tsne_3d_y": 1.0, "grid_tsne_3d_z": 1.0, "tile_dir": "tiles/0055" }, "geometry": { "type": "Point", "coordinates": [ 23.216687363256767, -13.169608974028385 ] } },
{ "type": "Feature", "properties": { "index": 56, "lon": 14.389772733590178, "lat": -6.6541444265347707, "classification": 124, "subregion_name": "Sub-Saharan Africa", "umap_1d_x": -12.678031, "umap_2d_x": 49.232986, "umap_2d_y": -14.641781, "umap_3d_x": 34.814491, "umap_3d_y": -6.0692863, "umap_3d_z": 27.619896, "tsne_1d_x": 50.419647, "tsne_2d_x": 40.619453, "tsne_2d_y": 1.362133, "tsne_3d_x": 5.1457405, "tsne_3d_y": -44.681847, "tsne_3d_z": -20.784101, "grid_umap_1d_x": 56.0, "grid_umap_2d_x": 5.0, "grid_umap_2d_y": 4.0, "grid_umap_3d_x": 3.0, "grid_umap_3d_y": 1.0, "grid_umap_3d_z": 3.0, "grid_tsne_1d_x": 48.0, "grid_tsne_2d_x": 7.0, "grid_tsne_2d_y": 3.0, "grid_tsne_3d_x": 2.0, "grid_tsne_3d_y": 0.0, "grid_tsne_3d_z": 1.0, "tile_dir": "tiles/0056" }, "geometry": { "type": "Point", "coordinates": [ 14.389772733590178, -6.654144426534771 ] } },
{ "type": "Feature", "properties": { "index": 57, "lon": 33.827035026754004, "lat": 3.237935272644513, "classification": 126, "subregion_name": "Sub-Saharan Africa", "umap_1d_x": -1.6178079, "umap_2d_x": 7.4165764, "umap_2d_y": 27.903275, "umap_3d_x": 6.5590324, "umap_3d_y": 29.520813, "umap_3d_z": 28.682365, "tsne_1d_x": 19.424568, "tsne_2d_x": 9.9998245, "tsne_2d_y": -15.823807, "tsne_3d_x": 3.8994293, "tsne_3d_y": -38.412094, "tsne_3d_z": 5.6737785, "grid_umap_1d_x": 57.0, "grid_umap_2d_x": 4.0, "grid_umap_2d_y": 5.0, "grid_umap_3d_x": 2.0, "grid_umap_3d_y": 3.0, "grid_umap_3d_z": 3.0, "grid_tsne_1d_x": 38.0, "grid_tsne_2d_x": 4.0, "grid_tsne_2d_y": 1.0, "grid_tsne_3d_x": 1.0, "grid_tsne_3d_y": 0.0, "grid_tsne_3d_z": 2.0, "tile_dir": "tiles/0057" }, "geometry": { "type": "Point", "coordinates": [ 33.827035026754004, 3.237935272644513 ] } },
{ "type": "Feature", "properties": { "index": 58, "lon": 115.57849458857538, "lat": 61.108587953773124, "classification": 113, "subregion_name": "Eastern Europe", "umap_1d_x": 15.58827, "umap_2d_x": -40.826763, "umap_2d_y": 12.810307, "umap_3d_x": -47.820541, "umap_3d_y": 19.973686, "umap_3d_z": -14.179276, "tsne_1d_x": -43.318604, "tsne_2d_x": -40.81134, "tsne_2d_y": -0.91966248, "tsne_3d_x": 6.1414185, "tsne_3d_y": 40.430031, "tsne_3d_z": 8.3729134, "grid_umap_1d_x": 58.0, "grid_umap_2d_x": 2.0, "grid_umap_2d_y": 6.0, "grid_umap_3d_x": 0.0, "grid_umap_3d_y": 3.0, "grid_umap_3d_z": 1.0, "grid_tsne_1d_x": 39.0, "grid_tsne_2d_x": 1.0, "grid_tsne_2d_y": 3.0, "grid_tsne_3d_x": 3.0, "grid_tsne_3d_y": 3.0, "grid_tsne_3d_z": 1.0, "tile_dir": "tiles/0058" }, "geometry": { "type": "Point", "coordinates": [ 115.578494588575381, 61.108587953773124 ] } },
{ "type": "Feature", "properties": { "index": 59, "lon": 27.352005395043591, "lat": -24.231954540860642, "classification": 126, "subregion_name": "Sub-Saharan Africa", "umap_1d_x": -15.157745, "umap_2d_x": 45.390686, "umap_2d_y": -31.487286, "umap_3d_x": 40.614731, "umap_3d_y": -25.462645, "umap_3d_z": 29.151627, "tsne_1d_x": 71.722908, "tsne_2d_x": 38.800186, "tsne_2d_y": 27.902946, "tsne_3d_x": -25.119644, "tsne_3d_y": -30.396833, "tsne_3d_z": -18.543854, "grid_umap_1d_x": 59.0, "grid_umap_2d_x": 4.0, "grid_umap_2d_y": 2.0, "grid_umap_3d_x": 2.0, "grid_umap_3d_y": 0.0, "grid_umap_3d_z": 3.0, "grid_tsne_1d_x": 47.0, "grid_tsne_2d_x": 6.0, "grid_tsne_2d_y": 5.0, "grid_tsne_3d_x": 1.0, "grid_tsne_3d_y": 1.0, "grid_tsne_3d_z": 1.0, "tile_dir": "tiles/0059" }, "geometry": { "type": "Point", "coordinates": [ 27.352005395043591, -24.231954540860642 ] } },
{ "type": "Feature", "properties": { "index": 60, "lon": 71.662597598830786, "lat": 40.862977646267211, "classification": 40, "subregion_name": "Central Asia", "umap_1d_x": 6.3415618, "umap_2d_x": -12.898521, "umap_2d_y": 7.9429741, "umap_3d_x": -19.597507, "umap_3d_y": 3.4553757, "umap_3d_z": 8.1483231, "tsne_1d_x": -1.6010634, "tsne_2d_x": 6.6313629, "tsne_2d_y": 17.424187, "tsne_3d_x": -18.989143, "tsne_3d_y": -15.146164, "tsne_3d_z": 21.934059, "grid_umap_1d_x": 60.0, "grid_umap_2d_x": 0.0, "grid_umap_2d_y": 6.0, "grid_umap_3d_x": 0.0, "grid_umap_3d_y": 2.0, "grid_umap_3d_z": 3.0, "grid_tsne_1d_x": 40.0, "grid_tsne_2d_x": 4.0, "grid_tsne_2d_y": 6.0, "grid_tsne_3d_x": 0.0, "grid_tsne_3d_y": 0.0, "grid_tsne_3d_z": 3.0, "tile_dir": "tiles/0060" }, "geometry": { "type": "Point", "coordinates": [ 71.662597598830786, 40.862977646267211 ] } },
{ "type": "Feature", "properties": { "index": 61, "lon": 18.293803078548166, "lat": -33.089358150413283, "classification": 30, "subregion_name": "Sub-Saharan Africa", "umap_1d_x": -16.742493, "umap_2d_x": 35.326424, "umap_2d_y": -24.046976, "umap_3d_x": 46.578033, "umap_3d_y": -19.359171, "umap_3d_z": 9.122612, "tsne_1d_x": 67.516632, "tsne_2d_x": 30.507645, "tsne_2d_y": 35.691223, "tsne_3d_x": -17.606812, "tsne_3d_y": -8.2743721, "tsne_3d_z": -38.950989, "grid_umap_1d_x": 61.0, "grid_umap_2d_x": 5.0, "grid_umap_2d_y": 1.0, "grid_umap_3d_x": 3.0, "grid_umap_3d_y": 0.0, "grid_umap_3d_z": 0.0, "grid_tsne_1d_x": 46.0, "grid_tsne_2d_x": 4.0, "grid_tsne_2d_y": 5.0, "grid_tsne_3d_x": 1.0, "grid_tsne_3d_y": 3.0, "grid_tsne_3d_z": 0.0, "tile_dir": "tiles/0061" }, "geometry": { "type": "Point", "coordinates": [ 18.293803078548166, -33.089358150413283 ] } },
{ "type": "Feature", "properties": { "index": 62, "lon": 126.40139895653869, "lat": 43.865096381739292, "classification": 114, "subregion_name": "Unknown", "umap_1d_x": 8.7559767, "umap_2d_x": -14.259384, "umap_2d_y": 31.482552, "umap_3d_x": -13.006783, "umap_3d_y": 24.284698, "umap_3d_z": -7.3292389, "tsne_1d_x": -9.4881153, "tsne_2d_x": -8.6456909, "tsne_2d_y": -25.529936, "tsne_3d_x": 35.772621, "tsne_3d_y": 6.7606812, "tsne_3d_z": 7.6810417, "grid_umap_1d_x": 62.0, "grid_umap_2d_x": 3.0, "grid_umap_2d_y": 6.0, "grid_umap_3d_x": 2.0, "grid_umap_3d_y": 3.0, "grid_umap_3d_z": 0.0, "grid_tsne_1d_x": 41.0, "grid_tsne_2d_x": 2.0, "grid_tsne_2d_y": 0.0, "grid_tsne_3d_x": 3.0, "grid_tsne_3d_y": 2.0, "grid_tsne_3d_z": 1.0, "tile_dir": "tiles/0062" }, "geometry": { "type": "Point", "coordinates": [ 126.401398956538685, 43.865096381739292 ] } },
{ "type": "Feature", "properties": { "index": 63, "lon": 31.174177872996921, "lat": 2.4854102989387741, "classification": 40, "subregion_name": "Sub-Saharan Africa", "umap_1d_x": -1.5186067, "umap_2d_x": 6.978756, "umap_2d_y": 28.366158, "umap_3d_x": 6.1956749, "umap_3d_y": 29.445, "umap_3d_z": 28.133934, "tsne_1d_x": 19.360798, "tsne_2d_x": 9.851532, "tsne_2d_y": -16.124905, "tsne_3d_x": 4.0579872, "tsne_3d_y": -38.03397, "tsne_3d_z": 5.5690346, "grid_umap_1d_x": 63.0, "grid_umap_2d_x": 4.0, "grid_umap_2d_y": 6.0, "grid_umap_3d_x": 1.0, "grid_umap_3d_y": 2.0, "grid_umap_3d_z": 3.0, "grid_tsne_1d_x": 43.0, "grid_tsne_2d_x": 4.0, "grid_tsne_2d_y": 0.0, "grid_tsne_3d_x": 2.0, "grid_tsne_3d_y": 0.0, "grid_tsne_3d_z": 2.0, "tile_dir": "tiles/0063" }, "geometry": { "type": "Point", "coordinates": [ 31.174177872996921, 2.485410298938774 ] } }
]
}
