{
"type": "FeatureCollection",
"name": "web_grid_data_25",
"crs": { "type": "name", "properties": { "name": "urn:ogc:def:crs:OGC:1.3:CRS84" } },
"features": [
{ "type": "Feature", "properties": { "index": 0, "lon": -131.18402489695137, "lat": 59.611055315170134, "classification": 126, "subregion_name": "Northern America", "umap_1d_x": 16.784231, "umap_2d_x": -40.799011, "umap_2d_y": -2.7987022, "umap_3d_x": -45.941341, "umap_3d_y": 4.6413116, "umap_3d_z": -26.571562, "tsne_1d_x": -49.619076, "tsne_2d_x": -26.663736, "tsne_2d_y": 13.954807, "tsne_3d_x": -16.747684, "tsne_3d_y": 38.547501, "tsne_3d_z": 29.680862, "grid_umap_1d_x": 17.0, "grid_umap_2d_x": 0.0, "grid_umap_2d_y": 2.0, "grid_umap_3d_x": 1.0, "grid_umap_3d_y": 1.0, "grid_umap_3d_z": 1.0, "grid_tsne_1d_x": 0.0, "grid_tsne_2d_x": 1.0, "grid_tsne_2d_y": 1.0, "grid_tsne_3d_x": 1.0, "grid_tsne_3d_y": 2.0, "grid_tsne_3d_z": 1.0, "tile_dir": "tiles/0000" }, "geometry": { "type": "Point", "coordinates": [ -131.184024896951371, 59.611055315170134 ] } },
{ "type": "Feature", "properties": { "index": 1, "lon": -62.623883749037333, "lat": 9.0173454830158875, "classification": 30, "subregion_name": "Latin America and the Caribbean", "umap_1d_x": 0.63910246, "umap_2d_x": 10.030628, "umap_2d_y": 43.123466, "umap_3d_x": 6.1113014, "umap_3d_y": 49.059601, "umap_3d_z": 24.983414, "tsne_1d_x": 17.551109, "tsne_2d_x": 19.866989, "tsne_2d_y": -37.949833, "tsne_3d_x": 36.957924, "tsne_3d_y": -40.670971, "tsne_3d_z": 20.553169, "grid_umap_1d_x": 1.0, "grid_umap_2d_x": 2.0, "grid_umap_2d_y": 4.0, "grid_umap_3d_x": 1.0, "grid_umap_3d_y": 2.0, "grid_umap_3d_z": 2.0, "grid_tsne_1d_x": 17.0, "grid_tsne_2d_x": 2.0, "grid_tsne_2d_y": 0.0, "grid_tsne_3d_x": 2.0, "grid_tsne_3d_y": 0.0, "grid_tsne_3d_z": 2.0, "tile_dir": "tiles/0001" }, "geometry": { "type": "Point", "coordinates": [ -62.623883749037333, 9.017345483015887 ] } },
{ "type": "Feature", "properties": { "index": 2, "lon": 11.678798453991277, "lat": -3.6112736378482571, "classification": 30, "subregion_name": "Sub-Saharan Africa", "umap_1d_x": -12.320284, "umap_2d_x": 48.158806, "umap_2d_y": -12.502239, "umap_3d_x": 36.104492, "umap_3d_y": -3.9007645, "umap_3d_z": 27.594849, "tsne_1d_x": 49.514023, "tsne_2d_x": 40.090767, "tsne_2d_y": -2.8410454, "tsne_3d_x": -2.7764244, "tsne_3d_y": -47.970524, "tsne_3d_z": -25.487997, "grid_umap_1d_x": 0.0, "grid_umap_2d_x": 4.0, "grid_umap_2d_y": 2.0, "grid_umap_3d_x": 1.0, "grid_umap_3d_y": 1.0, "grid_umap_3d_z": 2.0, "grid_tsne_1d_x": 24.0, "grid_tsne_2d_x": 4.0, "grid_tsne_2d_y": 1.0, "grid_tsne_3d_x": 1.0, "grid_tsne_3d_y": 0.0, "grid_tsne_3d_z": 0.0, "tile_dir": "tiles/0002" }, "geometry": { "type": "Point", "coordinates": [ 11.678798453991277, -3.611273637848257 ] } },
{ "type": "Feature", "properties": { "index": 3, "lon": 10.361996318211908, "lat": 45.732221473162198, "classification": 115, "subregion_name": "Southern Europe", "umap_1d_x": 13.234972, "umap_2d_x": -24.740774, "umap_2d_y": -2.0402527, "umap_3d_x": -35.001968, "umap_3d_y": -5.3823433, "umap_3d_z": -0.8898201, "tsne_1d_x": -24.178932, "tsne_2d_x": -10.349129, "tsne_2d_y": 7.7882767, "tsne_3d_x": -24.24486, "tsne_3d_y": 5.8832092, "tsne_3d_z": 0.029479980000004957, "grid_umap_1d_x": 14.0, "grid_umap_2d_x": 2.0, "grid_umap_2d_y": 2.0, "grid_umap_3d_x": 0.0, "grid_umap_3d_y": 0.0, "grid_umap_3d_z": 2.0, "grid_tsne_1d_x": 1.0, "grid_tsne_2d_x": 1.0, "grid_tsne_2d_y": 2.0, "grid_tsne_3d_x": 0.0, "grid_tsne_3d_y": 1.0, "grid_tsne_3d_z": 1.0, "tile_dir": "tiles/0003" }, "geometry": { "type": "Point", "coordinates": [ 10.361996318211908, 45.732221473162198 ] } },
{ "type": "Feature", "properties": { "index": 4, "lon": 32.748271054603435, "lat": 58.383271269244545, "classification": 126, "subregion_name": "Eastern Europe", "umap_1d_x": 21.671848, "umap_2d_x": -27.601662, "umap_2d_y": -13.733841, "umap_3d_x": -35.775017, "umap_3d_y": -11.860596, "umap_3d_z": -15.688488, "tsne_1d_x": -22.066343, "tsne_2d_x": -14.942474, "tsne_2d_y": 15.959877, "tsne_3d_x": -30.494827, "tsne_3d_y": 11.660652, "tsne_3d_z": 16.022049, "grid_umap_1d_x": 22.0, "grid_umap_2d_x": 2.0, "grid_umap_2d_y": 0.0, "grid_umap_3d_x": 1.0, "grid_umap_3d_y": 0.0, "grid_umap_3d_z": 1.0, "grid_tsne_1d_x": 2.0, "grid_tsne_2d_x": 0.0, "grid_tsne_2d_y": 4.0, "grid_tsne_3d_x": 0.0, "grid_tsne_3d_y": 2.0, "grid_tsne_3d_z": 1.0, "tile_dir": "tiles/0004" }, "geometry": { "type": "Point", "coordinates": [ 32.748271054603435, 58.383271269244545 ] } },
{ "type": "Feature", "properties": { "index": 5, "lon": -157.58390939711236, "lat": 65.17565160674306, "classification": 90, "subregion_name": "Unknown", "umap_1d_x": 17.806704, "umap_2d_x": -44.699066, "umap_2d_y": -16.810043, "umap_3d_x": -42.901676, "umap_3d_y": 2.6384888, "umap_3d_z": -44.694881, "tsne_1d_x": -58.265682, "tsne_2d_x": -31.941742, "tsne_2d_y": 32.653877, "tsne_3d_x": 2.9549484, "tsne_3d_y": 15.060303, "tsne_3d_z": 38.198868, "grid_umap_1d_x": 18.0, "grid_umap_2d_x": 0.0, "grid_umap_2d_y": 0.0, "grid_umap_3d_x": 1.0, "grid_umap_3d_y": 1.0, "grid_umap_3d_z": 0.0, "grid_tsne_1d_x": 3.0, "grid_tsne_2d_x": 1.0, "grid_tsne_2d_y": 4.0, "grid_tsne_3d_x": 1.0, "grid_tsne_3d_y": 1.0, "grid_tsne_3d_z": 2.0, "tile_dir": "tiles/0005" }, "geometry": { "type": "Point", "coordinates": [ -157.583909397112365, 65.17565160674306 ] } },
{ "type": "Feature", "properties": { "index": 6, "lon": 126.49524758116115, "lat": -7.7473533825519283, "classification": 112, "subregion_name": "Unknown", "umap_1d_x": -5.2334523, "umap_2d_x": 26.046822, "umap_2d_y": 36.362289, "umap_3d_x": 21.212669, "umap_3d_y": 38.681229, "umap_3d_z": 9.3242645, "tsne_1d_x": 33.585602, "tsne_2d_x": 29.140602, "tsne_2d_y": -28.562157, "tsne_3d_x": 28.291878, "tsne_3d_y": -35.536945, "tsne_3d_z": -8.337204, "grid_umap_1d_x": 2.0, "grid_umap_2d_x": 3.0, "grid_umap_2d_y": 3.0, "grid_umap_3d_x": 2.0, "grid_umap_3d_y": 2.0, "grid_umap_3d_z": 1.0, "grid_tsne_1d_x": 23.0, "grid_tsne_2d_x": 3.0, "grid_tsne_2d_y": 0.0, "grid_tsne_3d_x": 2.0, "grid_tsne_3d_y": 0.0, "grid_tsne_3d_z": 1.0, "tile_dir": "tiles/0006" }, "geometry": { "type": "Point", "coordinates": [ 126.495247581161152, -7.747353382551928 ] } },
{ "type": "Feature", "properties": { "index": 7, "lon": -60.559199396934574, "lat": -9.1621168160118955, "classification": 112, "subregion_name": "Latin America and the Caribbean", "umap_1d_x": -8.9365721, "umap_2d_x": 38.613609, "umap_2d_y": 26.443062, "umap_3d_x": 35.40274, "umap_3d_y": 39.283745, "umap_3d_z": -0.15858078, "tsne_1d_x": 44.053436, "tsne_2d_x": 46.917664, "tsne_2d_y": -22.627541, "tsne_3d_x": 24.748405, "tsne_3d_y": -46.284798, "tsne_3d_z": -32.683697, "grid_umap_1d_x": 3.0, "grid_umap_2d_x": 4.0, "grid_umap_2d_y": 3.0, "grid_umap_3d_x": 2.0, "grid_umap_3d_y": 1.0, "grid_umap_3d_z": 0.0, "grid_tsne_1d_x": 22.0, "grid_tsne_2d_x": 3.0, "grid_tsne_2d_y": 1.0, "grid_tsne_3d_x": 2.0, "grid_tsne_3d_y": 0.0, "grid_tsne_3d_z": 0.0, "tile_dir": "tiles/0007" }, "geometry": { "type": "Point", "coordinates": [ -60.559199396934574, -9.162116816011896 ] } },
{ "type": "Feature", "properties": { "index": 8, "lon": -110.79753785998055, "lat": 33.630555413786169, "classification": 20, "subregion_name": "Unknown", "umap_1d_x": 6.6804304, "umap_2d_x": -14.232742, "umap_2d_y": 6.2004929, "umap_3d_x": -21.73452, "umap_3d_y": 1.2427826, "umap_3d_z": 8.274662, "tsne_1d_x": -4.1228843, "tsne_2d_x": 3.7339973, "tsne_2d_y": 19.898422, "tsne_3d_x": -12.748016, "tsne_3d_y": -17.180771, "tsne_3d_z": 11.545078, "grid_umap_1d_x": 7.0, "grid_umap_2d_x": 1.0, "grid_umap_2d_y": 3.0, "grid_umap_3d_x": 0.0, "grid_umap_3d_y": 2.0, "grid_umap_3d_z": 2.0, "grid_tsne_1d_x": 4.0, "grid_tsne_2d_x": 2.0, "grid_tsne_2d_y": 3.0, "grid_tsne_3d_x": 0.0, "grid_tsne_3d_y": 0.0, "grid_tsne_3d_z": 2.0, "tile_dir": "tiles/0008" }, "geometry": { "type": "Point", "coordinates": [ -110.797537859980551, 33.630555413786169 ] } },
{ "type": "Feature", "properties": { "index": 9, "lon": -62.809316173250267, "lat": -7.7734235029434373, "classification": 112, "subregion_name": "Latin America and the Caribbean", "umap_1d_x": -8.4970951, "umap_2d_x": 36.712852, "umap_2d_y": 26.328148, "umap_3d_x": 34.597984, "umap_3d_y": 44.493401, "umap_3d_z": -2.3514252, "tsne_1d_x": 43.094471, "tsne_2d_x": 47.466316, "tsne_2d_y": -26.036634, "tsne_3d_x": 30.110657, "tsne_3d_y": -46.982319, "tsne_3d_z": -34.743721, "grid_umap_1d_x": 4.0, "grid_umap_2d_x": 4.0, "grid_umap_2d_y": 4.0, "grid_umap_3d_x": 2.0, "grid_umap_3d_y": 2.0, "grid_umap_3d_z": 0.0, "grid_tsne_1d_x": 21.0, "grid_tsne_2d_x": 4.0, "grid_tsne_2d_y": 0.0, "grid_tsne_3d_x": 2.0, "grid_tsne_3d_y": 1.0, "grid_tsne_3d_z": 0.0, "tile_dir": "tiles/0009" }, "geometry": { "type": "Point", "coordinates": [ -62.809316173250267, -7.773423502943437 ] } },
{ "type": "Feature", "properties": { "index": 10, "lon": 146.94513291445736, "lat": 61.529970596381403, "classification": 113, "subregion_name": "Eastern Europe", "umap_1d_x": 15.601893, "umap_2d_x": -40.534248, "umap_2d_y": 12.777412, "umap_3d_x": -47.168957, "umap_3d_y": 19.881874, "umap_3d_z": -13.755428, "tsne_1d_x": -42.999237, "tsne_2d_x": -42.873554, "tsne_2d_y": -2.2109566, "tsne_3d_x": 12.70327, "tsne_3d_y": 41.384277, "tsne_3d_z": 7.4300117, "grid_umap_1d_x": 16.0, "grid_umap_2d_x": 1.0, "grid_umap_2d_y": 4.0, "grid_umap_3d_x": 0.0, "grid_umap_3d_y": 2.0, "grid_umap_3d_z": 1.0, "grid_tsne_1d_x": 5.0, "grid_tsne_2d_x": 0.0, "grid_tsne_2d_y": 1.0, "grid_tsne_3d_x": 2.0, "grid_tsne_3d_y": 2.0, "grid_tsne_3d_z": 0.0, "tile_dir": "tiles/0010" }, "geometry": { "type": "Point", "coordinates": [ 146.945132914457361, 61.529970596381403 ] } },
{ "type": "Feature", "properties": { "index": 11, "lon": 0.95097479554655695, "lat": 34.24992652088514, "classification": 60, "subregion_name": "Northern Africa", "umap_1d_x": 5.6052785, "umap_2d_x": -9.5533752, "umap_2d_y": 5.9256439, "umap_3d_x": -17.999004, "umap_3d_y": 0.99185562, "umap_3d_z": 15.099884, "tsne_1d_x": -0.17826821, "tsne_2d_x": 10.541142, "tsne_2d_y": 8.6655502, "tsne_3d_x": -14.000412, "tsne_3d_y": -29.70507, "tsne_3d_z": 21.074417, "grid_umap_1d_x": 6.0, "grid_umap_2d_x": 0.0, "grid_umap_2d_y": 4.0, "grid_umap_3d_x": 0.0, "grid_umap_3d_y": 1.0, "grid_umap_3d_z": 2.0, "grid_tsne_1d_x": 6.0, "grid_tsne_2d_x": 3.0, "grid_tsne_2d_y": 3.0, "grid_tsne_3d_x": 1.0, "grid_tsne_3d_y": 1.0, "grid_tsne_3d_z": 1.0, "tile_dir": "tiles/0011" }, "geometry": { "type": "Point", "coordinates": [ 0.950974795546557, 34.24992652088514 ] } },
{ "type": "Feature", "properties": { "index": 12, "lon": 132.00268937221205, "lat": -14.470777994387468, "classification": 124, "subregion_name": "Unknown", "umap_1d_x": -18.346872, "umap_2d_x": 40.449249, "umap_2d_y": -32.292564, "umap_3d_x": 47.967949, "umap_3d_y": -27.206923, "umap_3d_z": 25.99559, "tsne_1d_x": 73.731018, "tsne_2d_x": 45.452385, "tsne_2d_y": 28.245979, "tsne_3d_x": -24.758839, "tsne_3d_y": -27.676538, "tsne_3d_z": -31.347864, "grid_umap_1d_x": 5.0, "grid_umap_2d_x": 4.0, "grid_umap_2d_y": 0.0, "grid_umap_3d_x": 2.0, "grid_umap_3d_y": 0.0, "grid_umap_3d_z": 1.0, "grid_tsne_1d_x": 20.0, "grid_tsne_2d_x": 3.0, "grid_tsne_2d_y": 2.0, "grid_tsne_3d_x": 0.0, "grid_tsne_3d_y": 0.0, "grid_tsne_3d_z": 0.0, "tile_dir": "tiles/0012" }, "geometry": { "type": "Point", "coordinates": [ 132.002689372212046, -14.470777994387468 ] } },
{ "type": "Feature", "properties": { "index": 13, "lon": -64.07543519235378, "lat": -29.89822853601709, "classification": 20, "subregion_name": "Latin America and the Caribbean", "umap_1d_x": -16.142159, "umap_2d_x": 37.806343, "umap_2d_y": -22.611418, "umap_3d_x": 46.584442, "umap_3d_y": -16.364399, "umap_3d_z": 13.835758, "tsne_1d_x": 64.845367, "tsne_2d_x": 32.506813, "tsne_2d_y": 29.146271, "tsne_3d_x": -14.186985, "tsne_3d_y": -17.198147, "tsne_3d_z": -34.836872, "grid_umap_1d_x": 8.0, "grid_umap_2d_x": 4.0, "grid_umap_2d_y": 1.0, "grid_umap_3d_x": 2.0, "grid_umap_3d_y": 1.0, "grid_umap_3d_z": 1.0, "grid_tsne_1d_x": 19.0, "grid_tsne_2d_x": 4.0, "grid_tsne_2d_y": 4.0, "grid_tsne_3d_x": 1.0, "grid_tsne_3d_y": 1.0, "grid_tsne_3d_z": 0.0, "tile_dir": "tiles/0013" }, "geometry": { "type": "Point", "coordinates": [ -64.07543519235378, -29.89822853601709 ] } },
{ "type": "Feature", "properties": { "index": 14, "lon": 122.96991375058582, "lat": -26.597251782422653, "classification": 20, "subregion_name": "Unknown", "umap_1d_x": -20.649744, "umap_2d_x": 41.690155, "umap_2d_y": -49.519207, "umap_3d_x": 49.549431, "umap_3d_y": -49.337238, "umap_3d_z": 23.66021, "tsne_1d_x": 80.985001, "tsne_2d_x": 43.617508, "tsne_2d_y": 41.451408, "tsne_3d_x": -47.503685, "tsne_3d_y": -14.503075, "tsne_3d_z": -23.088133, "grid_umap_1d_x": 9.0, "grid_umap_2d_x": 3.0, "grid_umap_2d_y": 0.0, "grid_umap_3d_x": 2.0, "grid_umap_3d_y": 0.0, "grid_umap_3d_z": 0.0, "grid_tsne_1d_x": 18.0, "grid_tsne_2d_x": 3.0, "grid_tsne_2d_y": 4.0, "grid_tsne_3d_x": 0.0, "grid_tsne_3d_y": 1.0, "grid_tsne_3d_z": 0.0, "tile_dir": "tiles/0014" }, "geometry": { "type": "Point", "coordinates": [ 122.969913750585818, -26.597251782422653 ] } },
{ "type": "Feature", "properties": { "index": 15, "lon": 97.920996945562763, "lat": 59.94224066763492, "classification": 111, "subregion_name": "Eastern Europe", "umap_1d_x": 14.303179, "umap_2d_x": -37.983921, "umap_2d_y": 11.536057, "umap_3d_x": -45.972298, "umap_3d_y": 14.099472, "umap_3d_z": -8.1910629, "tsne_1d_x": -42.193542, "tsne_2d_x": -39.76606, "tsne_2d_y": -3.5039444, "tsne_3d_x": 5.6392441, "tsne_3d_y": 36.017166, "tsne_3d_z": 3.9013367, "grid_umap_1d_x": 15.0, "grid_umap_2d_x": 2.0, "grid_umap_2d_y": 3.0, "grid_umap_3d_x": 0.0, "grid_umap_3d_y": 1.0, "grid_umap_3d_z": 1.0, "grid_tsne_1d_x": 7.0, "grid_tsne_2d_x": 0.0, "grid_tsne_2d_y": 0.0, "grid_tsne_3d_x": 1.0, "grid_tsne_3d_y": 2.0, "grid_tsne_3d_z": 0.0, "tile_dir": "tiles/0015" }, "geometry": { "type": "Point", "coordinates": [ 97.920996945562763, 59.94224066763492 ] } },
{ "type": "Feature", "properties": { "index": 16, "lon": -74.351473810246873, "lat": 9.0255167760401633, "classification": 30, "subregion_name": "Latin America and the Caribbean", "umap_1d_x": 0.6335783, "umap_2d_x": 10.169601, "umap_2d_y": 43.228287, "umap_3d_x": 6.1717033, "umap_3d_y": 48.559013, "umap_3d_z": 24.557327, "tsne_1d_x": 17.646626, "tsne_2d_x": 20.209251, "tsne_2d_y": -36.431702, "tsne_3d_x": 36.452126, "tsne_3d_y": -40.392982, "tsne_3d_z": 17.791115, "grid_umap_1d_x": 10.0, "grid_umap_2d_x": 3.0, "grid_umap_2d_y": 4.0, "grid_umap_3d_x": 1.0, "grid_umap_3d_y": 2.0, "grid_umap_3d_z": 1.0, "grid_tsne_1d_x": 16.0, "grid_tsne_2d_x": 2.0, "grid_tsne_2d_y": 1.0, "grid_tsne_3d_x": 2.0, "grid_tsne_3d_y": 1.0, "grid_tsne_3d_z": 1.0, "tile_dir": "tiles/0016" }, "geometry": { "type": "Point", "coordinates": [ -74.351473810246873, 9.025516776040163 ] } },
{ "type": "Feature", "properties": { "index": 17, "lon": -67.702080491546951, "lat": 55.185151366741493, "classification": 111, "subregion_name": "Northern America", "umap_1d_x": 17.140059, "umap_2d_x": -40.393124, "umap_2d_y": -12.283157, "umap_3d_x": -47.051521, "umap_3d_y": -2.5857735, "umap_3d_z": -36.288727, "tsne_1d_x": -54.655392, "tsne_2d_x": -29.677114, "tsne_2d_y": 19.317757, "tsne_3d_x": -11.916763, "tsne_3d_y": 25.978798, "tsne_3d_z": 28.399277, "grid_umap_1d_x": 19.0, "grid_umap_2d_x": 2.0, "grid_umap_2d_y": 1.0, "grid_umap_3d_x": 1.0, "grid_umap_3d_y": 0.0, "grid_umap_3d_z": 0.0, "grid_tsne_1d_x": 8.0, "grid_tsne_2d_x": 0.0, "grid_tsne_2d_y": 3.0, "grid_tsne_3d_x": 0.0, "grid_tsne_3d_y": 2.0, "grid_tsne_3d_z": 2.0, "tile_dir": "tiles/0017" }, "geometry": { "type": "Point", "coordinates": [ -67.702080491546951, 55.185151366741493 ] } },
{ "type": "Feature", "properties": { "index": 18, "lon": 129.8696844453861, "lat": 67.568666112546566, "classification": 126, "subregion_name": "Eastern Europe", "umap_1d_x": 19.314495, "umap_2d_x": -48.998184, "umap_2d_y": -5.208313, "umap_3d_x": -46.861744, "umap_3d_y": 18.750771, "umap_3d_z": -49.154568, "tsne_1d_x": -72.220917, "tsne_2d_x": -44.177773, "tsne_2d_y": 30.284843, "tsne_3d_x": 12.544674, "tsne_3d_y": 36.695671, "tsne_3d_z": 46.677116, "grid_umap_1d_x": 20.0, "grid_umap_2d_x": 1.0, "grid_umap_2d_y": 2.0, "grid_umap_3d_x": 1.0, "grid_umap_3d_y": 2.0, "grid_umap_3d_z": 0.0, "grid_tsne_1d_x": 9.0, "grid_tsne_2d_x": 2.0, "grid_tsne_2d_y": 2.0, "grid_tsne_3d_x": 2.0, "grid_tsne_3d_y": 2.0, "grid_tsne_3d_z": 1.0, "tile_dir": "tiles/0018" }, "geometry": { "type": "Point", "coordinates": [ 129.869684445386099, 67.568666112546566 ] } },
{ "type": "Feature", "properties": { "index": 19, "lon": 21.697529439419128, "lat": -19.900342479338065, "classification": 20, "subregion_name": "Sub-Saharan Africa", "umap_1d_x": -15.153301, "umap_2d_x": 45.407036, "umap_2d_y": -33.2878, "umap_3d_x": 40.717613, "umap_3d_y": -27.940657, "umap_3d_z": 29.13578, "tsne_1d_x": 72.079483, "tsne_2d_x": 39.586823, "tsne_2d_y": 30.071083, "tsne_3d_x": -28.402611, "tsne_3d_y": -28.009037, "tsne_3d_z": -15.723083, "grid_umap_1d_x": 11.0, "grid_umap_2d_x": 3.0, "grid_umap_2d_y": 1.0, "grid_umap_3d_x": 1.0, "grid_umap_3d_y": 0.0, "grid_umap_3d_z": 2.0, "grid_tsne_1d_x": 15.0, "grid_tsne_2d_x": 4.0, "grid_tsne_2d_y": 3.0, "grid_tsne_3d_x": 0.0, "grid_tsne_3d_y": 0.0, "grid_tsne_3d_z": 1.0, "tile_dir": "tiles/0019" }, "geometry": { "type": "Point", "coordinates": [ 21.697529439419128, -19.900342479338065 ] } },
{ "type": "Feature", "properties": { "index": 20, "lon": 11.866671031832539, "lat": 63.925305067871449, "classification": 126, "subregion_name": "Northern Europe", "umap_1d_x": 20.512077, "umap_2d_x": -32.747791, "umap_2d_y": -14.38736, "umap_3d_x": -40.100128, "umap_3d_y": -9.5014648, "umap_3d_z": -22.512569, "tsne_1d_x": -47.966679, "tsne_2d_x": -19.418699, "tsne_2d_y": 16.829491, "tsne_3d_x": -31.097103, "tsne_3d_y": 18.062714, "tsne_3d_z": 23.486824, "grid_umap_1d_x": 21.0, "grid_umap_2d_x": 1.0, "grid_umap_2d_y": 0.0, "grid_umap_3d_x": 0.0, "grid_umap_3d_y": 0.0, "grid_umap_3d_z": 0.0, "grid_tsne_1d_x": 10.0, "grid_tsne_2d_x": 1.0, "grid_tsne_2d_y": 3.0, "grid_tsne_3d_x": 0.0, "grid_tsne_3d_y": 1.0, "grid_tsne_3d_z": 2.0, "tile_dir": "tiles/0020" }, "geometry": { "type": "Point", "coordinates": [ 11.866671031832539, 63.925305067871449 ] } },
{ "type": "Feature", "properties": { "index": 21, "lon": -67.000067675694936, "lat": 56.520365894572905, "classification": 121, "subregion_name": "Northern America", "umap_1d_x": 17.031069, "umap_2d_x": -40.657894, "umap_2d_y": -10.165035, "umap_3d_x": -47.96669, "umap_3d_y": -1.7142105, "umap_3d_z": -34.377831, "tsne_1d_x": -53.288025, "tsne_2d_x": -30.902267, "tsne_2d_y": 18.242661, "tsne_3d_x": -6.9342155, "tsne_3d_y": 26.111237, "tsne_3d_z": 25.749802, "grid_umap_1d_x": 24.0, "grid_umap_2d_x": 0.0, "grid_umap_2d_y": 1.0, "grid_umap_3d_x": 0.0, "grid_umap_3d_y": 1.0, "grid_umap_3d_z": 0.0, "grid_tsne_1d_x": 11.0, "grid_tsne_2d_x": 0.0, "grid_tsne_2d_y": 2.0, "grid_tsne_3d_x": 1.0, "grid_tsne_3d_y": 2.0, "grid_tsne_3d_z": 2.0, "tile_dir": "tiles/0021" }, "geometry": { "type": "Point", "coordinates": [ -67.000067675694936, 56.520365894572905 ] } },
{ "type": "Feature", "properties": { "index": 22, "lon": 74.533283241064964, "lat": 34.569891084890315, "classification": 30, "subregion_name": "Southern Asia", "umap_1d_x": 7.5232177, "umap_2d_x": -25.657515, "umap_2d_y": 5.7595177, "umap_3d_x": -43.359894, "umap_3d_y": 20.595413, "umap_3d_z": -37.313244, "tsne_1d_x": -6.6883774, "tsne_2d_x": -0.3473053, "tsne_2d_y": 31.472496, "tsne_3d_x": 0.1976738, "tsne_3d_y": -7.3195419, "tsne_3d_z": 20.113548, "grid_umap_1d_x": 12.0, "grid_umap_2d_x": 0.0, "grid_umap_2d_y": 3.0, "grid_umap_3d_x": 0.0, "grid_umap_3d_y": 2.0, "grid_umap_3d_z": 0.0, "grid_tsne_1d_x": 12.0, "grid_tsne_2d_x": 2.0, "grid_tsne_2d_y": 4.0, "grid_tsne_3d_x": 1.0, "grid_tsne_3d_y": 0.0, "grid_tsne_3d_z": 2.0, "tile_dir": "tiles/0022" }, "geometry": { "type": "Point", "coordinates": [ 74.533283241064964, 34.569891084890315 ] } },
{ "type": "Feature", "properties": { "index": 23, "lon": 28.895015635309448, "lat": 61.012316303254366, "classification": 115, "subregion_name": "Unknown", "umap_1d_x": 21.023874, "umap_2d_x": -28.651209, "umap_2d_y": -8.0117264, "umap_3d_x": -40.614895, "umap_3d_y": -14.3675, "umap_3d_z": -4.6115875, "tsne_1d_x": -27.282272, "tsne_2d_x": -21.175585, "tsne_2d_y": -10.615482, "tsne_3d_x": -33.124321, "tsne_3d_y": 25.484123, "tsne_3d_z": 1.8697433, "grid_umap_1d_x": 23.0, "grid_umap_2d_x": 1.0, "grid_umap_2d_y": 1.0, "grid_umap_3d_x": 0.0, "grid_umap_3d_y": 0.0, "grid_umap_3d_z": 1.0, "grid_tsne_1d_x": 13.0, "grid_tsne_2d_x": 1.0, "grid_tsne_2d_y": 0.0, "grid_tsne_3d_x": 0.0, "grid_tsne_3d_y": 2.0, "grid_tsne_3d_z": 0.0, "tile_dir": "tiles/0023" }, "geometry": { "type": "Point", "coordinates": [ 28.895015635309448, 61.012316303254366 ] } },
{ "type": "Feature", "properties": { "index": 24, "lon": 29.97862421347395, "lat": -2.879264055562786, "classification": 40, "subregion_name": "Sub-Saharan Africa", "umap_1d_x": -13.202173, "umap_2d_x": 48.082634, "umap_2d_y": -20.665079, "umap_3d_x": 35.680542, "umap_3d_y": -13.122746, "umap_3d_z": 29.273758, "tsne_1d_x": 52.88044, "tsne_2d_x": 33.202911, "tsne_2d_y": 4.8042374, "tsne_3d_x": -6.8461037, "tsne_3d_y": -40.559425, "tsne_3d_z": -9.3125496, "grid_umap_1d_x": 13.0, "grid_umap_2d_x": 3.0, "grid_umap_2d_y": 2.0, "grid_umap_3d_x": 2.0, "grid_umap_3d_y": 0.0, "grid_umap_3d_z": 2.0, "grid_tsne_1d_x": 14.0, "grid_tsne_2d_x": 4.0, "grid_tsne_2d_y": 2.0, "grid_tsne_3d_x": 1.0, "grid_tsne_3d_y": 0.0, "grid_tsne_3d_z": 1.0, "tile_dir": "tiles/0024" }, "geometry": { "type": "Point", "coordinates": [ 29.97862421347395, -2.879264055562786 ] } }
]
}
